{
  "license_plates": [
    {
      "code": "0",
      "city_district": "Diplomatisches Corps",
      "derived_from": "willkürlich gewählt",
      "federal_state": "Deutschland",
      "area_code": "030"
    },
    {
      "code": "A",
      "city_district": "Stadt Augsburg",
      "derived_from": "Augsburg",
      "federal_state": "Bayern",
      "lat": 48.371582,
      "lng": 10.898333,
      "area_code": "0821"
    },
    {
      "code": "AA",
      "city_district": "Ostalbkreis",
      "derived_from": "Aalen",
      "federal_state": "Baden-Württemberg",
      "area_code": "07361"
    },
    {
      "code": "AB",
      "city_district": "Stadt Aschaffenburg",
      "derived_from": "Aschaffenburg",
      "federal_state": "Bayern",
      "area_code": "06021"
    },
    {
      "code": "ABG",
      "city_district": "Altenburger Land",
      "derived_from": "Altenburg",
      "federal_state": "Thüringen",
      "area_code": "03447"
    },
    {
      "code": "ABI",
      "city_district": "Kreis Anhalt-Bitterfeld",
      "derived_from": "Anhalt-Bitterfeld",
      "federal_state": "Sachsen-Anhalt",
      "area_code": "0391"
    },
    {
      "code": "AC",
      "city_district": "Städteregion Aachen",
      "derived_from": "Aachen",
      "federal_state": "Nordrhein-Westfalen",
      "lat": 50.775346,
      "lng": 6.083887,
      "area_code": "0241"
    },
    {
      "code": "AE",
      "city_district": "Kreis Ahrweiler",
      "derived_from": "Ahrweiler",
      "federal_state": "Rheinland-Pfalz",
      "area_code": "06131"
    },
    {
      "code": "AH",
      "city_district": "Stadt Ahaus",
      "derived_from": "Ahaus",
      "federal_state": "Nordrhein-Westfalen",
      "area_code": "02561"
    },
    {
      "code": "AIB",
      "city_district": "Landkreis München",
      "derived_from": "AIBling",
      "federal_state": "Bayern",
      "area_code": "089"
    },
    {
      "code": "AIC",
      "city_district": "Landkreis Aichach-Friedberg",
      "derived_from": "Aichach",
      "federal_state": "Bayern",
      "area_code": "08251"
    },
    {
      "code": "AK",
      "city_district": "Kreis Altenkirchen",
      "derived_from": "Altenkirchen",
      "federal_state": "Rheinland-Pfalz",
      "area_code": "02681"
    },
    {
      "code": "ALF",
      "city_district": "Landkreis Hildesheim",
      "derived_from": "ALFeld",
      "federal_state": "Niedersachsen",
      "area_code": "05121"
    },
    {
      "code": "ALZ",
      "city_district": "Landkreis Aschaffenburg",
      "derived_from": "ALZenau",
      "federal_state": "Bayern",
      "area_code": "06021"
    },
    {
      "code": "AM",
      "city_district": "Stadt Amberg",
      "derived_from": "Amberg",
      "federal_state": "Bayern",
      "area_code": "09621"
    },
    {
      "code": "AN",
      "city_district": "Stadt Ansbach",
      "derived_from": "Ansbach",
      "federal_state": "Bayern",
      "area_code": "0981"
    },
    {
      "code": "ANA",
      "city_district": "Erzgebirgskreis",
      "derived_from": "ANnAberg",
      "federal_state": "Sachsen",
      "area_code": "0351"
    },
    {
      "code": "ANG",
      "city_district": "Landkreis Uckermark",
      "derived_from": "ANGermünde",
      "federal_state": "Brandenburg",
      "area_code": "0331"
    },
    {
      "code": "ANK",
      "city_district": "ehemaliger Kreis Anklam",
      "derived_from": "ANKlam",
      "federal_state": "Mecklenburg-Vorpommern",
      "area_code": "0385"
    },
    {
      "code": "AÖ",
      "city_district": "Kreis Altötting",
      "derived_from": "Altötting",
      "federal_state": "Bayern",
      "area_code": "08671"
    },
    {
      "code": "AP",
      "city_district": "Kreis Apolda",
      "derived_from": "Apolda",
      "federal_state": "Thüringen",
      "area_code": "03644"
    },
    {
      "code": "APD",
      "city_district": "Landkreis Weimarer Land",
      "derived_from": "APolDa",
      "federal_state": "Thüringen",
      "area_code": "0361"
    },
    {
      "code": "ARN",
      "city_district": "Kreis Arnstadt",
      "derived_from": "Arnstadt",
      "federal_state": "Thüringen",
      "area_code": "03628"
    },
    {
      "code": "ART",
      "city_district": "Kreis Artern",
      "derived_from": "Artern",
      "federal_state": "Thüringen",
      "area_code": "03466"
    },
    {
      "code": "AS",
      "city_district": "Stadt Amberg-Sulzbach",
      "derived_from": "Amberg-Sulzbach",
      "federal_state": "Bayern",
      "area_code": "09621"
    },
    {
      "code": "ASL",
      "city_district": "Kreis Aschersleben-Staßfurt",
      "derived_from": "Aschersleben",
      "federal_state": "Sachsen-Anhalt",
      "area_code": "03473"
    },
    {
      "code": "ASZ",
      "city_district": "Kreis Bad Aussee",
      "derived_from": "Aussee",
      "federal_state": "Bayern",
      "area_code": "089"
    },
    {
      "code": "AT",
      "city_district": "ehemaliger Kreis Altentreptow",
      "derived_from": "AltenTreptow",
      "federal_state": "Mecklenburg-Vorpommern",
      "area_code": "0385"
    },
    {
      "code": "AU",
      "city_district": "Kreis Aue",
      "derived_from": "Aue",
      "federal_state": "Sachsen",
      "area_code": "03771"
    },
    {
      "code": "AUR",
      "city_district": "Landkreis Aurich",
      "derived_from": "Aurich",
      "federal_state": "Niedersachsen",
      "area_code": "04941"
    },
    {
      "code": "AW",
      "city_district": "Kreis Ahrweiler",
      "derived_from": "Ahrweiler",
      "federal_state": "Rheinland-Pfalz",
      "area_code": "06131"
    },
    {
      "code": "AZ",
      "city_district": "Kreis Alzey-Worms",
      "derived_from": "Alzey",
      "federal_state": "Rheinland-Pfalz",
      "area_code": "06131"
    },
    {
      "code": "AZE",
      "city_district": "Landkreis Anhalt-Bitterfeld",
      "derived_from": "Landkreis Anhalt-ZErbst",
      "federal_state": "Sachsen-Anhalt",
      "area_code": "0391"
    },
    {
      "code": "B",
      "city_district": "Berlin",
      "derived_from": "Berlin",
      "federal_state": "Berlin",
      "lat": 52.520008,
      "lng": 13.404954,
      "area_code": "030"
    },
    {
      "code": "BA",
      "city_district": "Stadt Bamberg",
      "derived_from": "Bamberg",
      "federal_state": "Bayern",
      "area_code": "0951"
    },
    {
      "code": "BAD",
      "city_district": "Stadt Baden-Baden",
      "derived_from": "Baden-Baden",
      "federal_state": "Baden-Württemberg",
      "area_code": "07221"
    },
    {
      "code": "BAR",
      "city_district": "Landkreis Barnim",
      "derived_from": "Barnim",
      "federal_state": "Brandenburg",
      "area_code": "03334"
    },
    {
      "code": "BB",
      "city_district": "Kreis Böblingen",
      "derived_from": "Böblingen",
      "federal_state": "Baden-Württemberg",
      "area_code": "0711"
    },
    {
      "code": "BBG",
      "city_district": "Stadt Bernburg",
      "derived_from": "Bernburg",
      "federal_state": "Sachsen-Anhalt",
      "area_code": "03471"
    },
    {
      "code": "BBL",
      "city_district": "Brandenburg, Landesregierung, Landtag und Polizei",
      "derived_from": "BrandenBurgische Landesregierung",
      "federal_state": "Brandenburg",
      "area_code": "03381"
    },
    {
      "code": "BC",
      "city_district": "Kreis Biberach",
      "derived_from": "Biberach",
      "federal_state": "Baden-Württemberg",
      "area_code": "07351"
    },
    {
      "code": "BCH",
      "city_district": "Neckar-Odenwald-Kreis",
      "derived_from": "BuCHen",
      "federal_state": "Baden-Württemberg",
      "area_code": "0711"
    },
    {
      "code": "BD",
      "city_district": "Bundeswehr Deutschland",
      "derived_from": "Bund Deutschland",
      "federal_state": "Deutschland",
      "area_code": "030"
    },
    {
      "code": "BE",
      "city_district": "Stadt Beckum",
      "derived_from": "Beckum",
      "federal_state": "Nordrhein-Westfalen",
      "area_code": "0211"
    },
    {
      "code": "BED",
      "city_district": "Kreis Bedburg",
      "derived_from": "Bedburg",
      "federal_state": "Nordrhein-Westfalen",
      "area_code": "0211"
    },
    {
      "code": "BER",
      "city_district": "Landkreis Bernkastel-Wittlich",
      "derived_from": "Bernkastel",
      "federal_state": "Rheinland-Pfalz",
      "area_code": "06131"
    },
    {
      "code": "BF",
      "city_district": "Stadt Steinfurt",
      "derived_from": "Burgsteinfurt",
      "federal_state": "Nordrhein-Westfalen",
      "area_code": "0211"
    },
    {
      "code": "BG",
      "city_district": "Landkreis Bergstraße",
      "derived_from": "Bergstraße",
      "federal_state": "Hessen",
      "area_code": "0611"
    },
    {
      "code": "BGD",
      "city_district": "Landkreis Berchtesgadener Land",
      "derived_from": "BerchtesGaDen",
      "federal_state": "Bayern",
      "area_code": "089"
    },
    {
      "code": "BGL",
      "city_district": "Landkreis Berchtesgadener Land",
      "derived_from": "BerchtesGadener Land",
      "federal_state": "Bayern",
      "area_code": "089"
    },
    {
      "code": "BH",
      "city_district": "Kreis Bühl",
      "derived_from": "Bühl",
      "federal_state": "Baden-Württemberg",
      "area_code": "0711"
    },
    {
      "code": "BI",
      "city_district": "Stadt Bielefeld",
      "derived_from": "Bielefeld",
      "federal_state": "Nordrhein-Westfalen",
      "lat": 52.020228,
      "lng": 8.532471,
      "area_code": "0521"
    },
    {
      "code": "BID",
      "city_district": "Landkreis Marburg-Biedenkopf",
      "derived_from": "BIeDenkopf",
      "federal_state": "Hessen",
      "area_code": "0611"
    },
    {
      "code": "BIN",
      "city_district": "Landkreis Mainz-Bingen",
      "derived_from": "BINgen",
      "federal_state": "Rheinland-Pfalz",
      "area_code": "06131"
    },
    {
      "code": "BIR",
      "city_district": "Landkreis Birkenfeld",
      "derived_from": "Birkenfeld",
      "federal_state": "Rheinland-Pfalz",
      "area_code": "06131"
    },
    {
      "code": "BIT",
      "city_district": "Landkreis Bitburg-Prüm",
      "derived_from": "Bitburg",
      "federal_state": "Rheinland-Pfalz",
      "area_code": "06131"
    },
    {
      "code": "BIW",
      "city_district": "Landkreis Bautzen",
      "derived_from": "BIschofsWerda",
      "federal_state": "Sachsen",
      "area_code": "03591"
    },
    {
      "code": "BK",
      "city_district": "Salzlandkreis",
      "derived_from": "Bernburg",
      "federal_state": "Sachsen-Anhalt",
      "area_code": "03471"
    },
    {
      "code": "BKS",
      "city_district": "Landkreis Bernkastel-Wittlich",
      "derived_from": "BernKaStel",
      "federal_state": "Rheinland-Pfalz",
      "area_code": "06131"
    },
    {
      "code": "BL",
      "city_district": "Zollernalbkreis",
      "derived_from": "Balingen",
      "federal_state": "Baden-Württemberg",
      "area_code": "0711"
    },
    {
      "code": "BLB",
      "city_district": "Kreis Siegen-Wittgenstein",
      "derived_from": "BerLeBurg",
      "federal_state": "Nordrhein-Westfalen",
      "area_code": "0271"
    },
    {
      "code": "BLK",
      "city_district": "Burgenlandkreis",
      "derived_from": "BurgenLandKreis",
      "federal_state": "Sachsen-Anhalt",
      "area_code": "0391"
    },
    {
      "code": "BM",
      "city_district": "Rhein-Erft-Kreis",
      "derived_from": "Bergheim",
      "federal_state": "Nordrhein-Westfalen",
      "area_code": "0211"
    },
    {
      "code": "BN",
      "city_district": "Stadt Bonn",
      "derived_from": "Bonn",
      "federal_state": "Nordrhein-Westfalen",
      "lat": 50.735851,
      "lng": 7.10066,
      "area_code": "0228"
    },
    {
      "code": "BNA",
      "city_district": "Landkreis Leipzig",
      "derived_from": "BorNA",
      "federal_state": "Sachsen",
      "area_code": "0341"
    },
    {
      "code": "BO",
      "city_district": "Stadt Bochum",
      "derived_from": "Bochum",
      "federal_state": "Nordrhein-Westfalen",
      "lat": 51.481845,
      "lng": 7.216236,
      "area_code": "0234"
    },
    {
      "code": "BÖ",
      "city_district": "Landkreis Börde",
      "derived_from": "Börde",
      "federal_state": "Sachsen-Anhalt",
      "area_code": "0391"
    },
    {
      "code": "BOG",
      "city_district": "Landkreis Straubing-Bogen",
      "derived_from": "BOGen",
      "federal_state": "Bayern",
      "area_code": "089"
    },
    {
      "code": "BOH",
      "city_district": "Kreis Borken",
      "derived_from": "BOcHolt",
      "federal_state": "Nordrhein-Westfalen",
      "area_code": "02861"
    },
    {
      "code": "BOR",
      "city_district": "Kreis Borken",
      "derived_from": "Borken",
      "federal_state": "Nordrhein-Westfalen",
      "area_code": "02861"
    },
    {
      "code": "BOT",
      "city_district": "Stadt Bottrop",
      "derived_from": "Bottrop",
      "federal_state": "Nordrhein-Westfalen",
      "lat": 51.524444,
      "lng": 6.928611,
      "area_code": "02041"
    },
    {
      "code": "BP",
      "city_district": "Bundespolizei",
      "derived_from": "Bundespolizei",
      "federal_state": "Deutschland",
      "area_code": "030"
    },
    {
      "code": "BR",
      "city_district": "Stadt Bruchsal",
      "derived_from": "Bruchsal",
      "federal_state": "Baden-Württemberg",
      "area_code": "0711"
    },
    {
      "code": "BRA",
      "city_district": "Stadt Brandenburg an der Havel",
      "derived_from": "Brandenburg",
      "federal_state": "Brandenburg",
      "area_code": "03381"
    },
    {
      "code": "BRB",
      "city_district": "Landkreis Barnim",
      "derived_from": "Brandenburg",
      "federal_state": "Brandenburg",
      "area_code": "03381"
    },
    {
      "code": "BRG",
      "city_district": "Kreis Bernburg",
      "derived_from": "Bernburg",
      "federal_state": "Sachsen-Anhalt",
      "area_code": "03471"
    },
    {
      "code": "BRK",
      "city_district": "Landkreis Bad Kissingen",
      "derived_from": "Bad Brückenau",
      "federal_state": "Bayern",
      "area_code": "0971"
    },
    {
      "code": "BRL",
      "city_district": "Kreis Braunschweig-Land",
      "derived_from": "Braunschweig-Land",
      "federal_state": "Niedersachsen",
      "area_code": "0531"
    },
    {
      "code": "BRV",
      "city_district": "Landkreis Rotenburg",
      "derived_from": "BRemerVörde",
      "federal_state": "Niedersachsen",
      "area_code": "04261"
    },
    {
      "code": "BS",
      "city_district": "Stadt Braunschweig",
      "derived_from": "Braunschweig",
      "federal_state": "Niedersachsen",
      "lat": 52.269167,
      "lng": 10.521683,
      "area_code": "0531"
    },
    {
      "code": "BSB",
      "city_district": "Landkreis Osnabrück",
      "derived_from": "BerSenBrück",
      "federal_state": "Niedersachsen",
      "area_code": "0541"
    },
    {
      "code": "BSK",
      "city_district": "Landkreis Oder-Spree",
      "derived_from": "BeeSKow",
      "federal_state": "Brandenburg",
      "area_code": "0331"
    },
    {
      "code": "BT",
      "city_district": "Stadt Bayreuth",
      "derived_from": "Bayreuth",
      "federal_state": "Bayern",
      "area_code": "0921"
    },
    {
      "code": "BTF",
      "city_district": "Landkreis Bitterfeld",
      "derived_from": "Bitterfeld",
      "federal_state": "Sachsen-Anhalt",
      "area_code": "03493"
    },
    {
      "code": "BU",
      "city_district": "Landkreis Burgdorf",
      "derived_from": "Burgdorf",
      "federal_state": "Niedersachsen",
      "area_code": "0511"
    },
    {
      "code": "BÜD",
      "city_district": "Landkreis Büdingen",
      "derived_from": "Büdingen",
      "federal_state": "Hessen",
      "area_code": "0611"
    },
    {
      "code": "BUL",
      "city_district": "Landkreis Amberg-Sulzbach",
      "derived_from": "BUrgLengenfeld",
      "federal_state": "Bayern",
      "area_code": "09621"
    },
    {
      "code": "BÜR",
      "city_district": "Kreis Büren",
      "derived_from": "Büren",
      "federal_state": "Nordrhein-Westfalen",
      "area_code": "0211"
    },
    {
      "code": "BÜS",
      "city_district": "Kreis Büsingen",
      "derived_from": "Büsingen",
      "federal_state": "Baden-Württemberg",
      "area_code": "0711"
    },
    {
      "code": "BÜZ",
      "city_district": "Landkreis Bützow",
      "derived_from": "Bützow",
      "federal_state": "Mecklenburg-Vorpommern",
      "area_code": "0385"
    },
    {
      "code": "BW",
      "city_district": "Wasser- und Schifffahrtsämter des Bundes",
      "derived_from": "Bundeswasserstraße",
      "federal_state": "Deutschland",
      "area_code": "030"
    },
    {
      "code": "BWL",
      "city_district": "Baden-Württemberg, Landesregierung, Landtag und Polizei",
      "derived_from": "Baden-Württembergischer Landtag",
      "federal_state": "Baden-Württemberg",
      "area_code": "0711"
    },
    {
      "code": "BY",
      "city_district": "Landkreis Bayreuth",
      "derived_from": "Bayreuth",
      "federal_state": "Bayern",
      "area_code": "0921"
    },
    {
      "code": "BYL",
      "city_district": "Bayern, Landesregierung und Landtag",
      "derived_from": "BaYerischer Landtag",
      "federal_state": "Bayern",
      "area_code": "089"
    },
    {
      "code": "BZ",
      "city_district": "Landkreis Bautzen",
      "derived_from": "Bautzen",
      "federal_state": "Sachsen",
      "area_code": "03591"
    },
    {
      "code": "C",
      "city_district": "Stadt Chemnitz",
      "derived_from": "Chemnitz",
      "federal_state": "Sachsen",
      "lat": 50.827845,
      "lng": 12.921446,
      "area_code": "0371"
    },
    {
      "code": "CA",
      "city_district": "Landkreis Calau",
      "derived_from": "Calau",
      "federal_state": "Brandenburg",
      "area_code": "0331"
    },
    {
      "code": "CAL",
      "city_district": "Landkreis Calw",
      "derived_from": "Calw",
      "federal_state": "Baden-Württemberg",
      "area_code": "0711"
    },
    {
      "code": "CAS",
      "city_district": "Stadt Castrop-Rauxel",
      "derived_from": "Castrop",
      "federal_state": "Nordrhein-Westfalen",
      "area_code": "0211"
    },
    {
      "code": "CB",
      "city_district": "Landkreis Cottbus",
      "derived_from": "Cottbus",
      "federal_state": "Brandenburg",
      "area_code": "0355"
    },
    {
      "code": "CE",
      "city_district": "Stadt Celle",
      "derived_from": "Celle",
      "federal_state": "Niedersachsen",
      "area_code": "05141"
    },
    {
      "code": "CHA",
      "city_district": "Landkreis Cham",
      "derived_from": "Cham",
      "federal_state": "Bayern",
      "area_code": "089"
    },
    {
      "code": "CLP",
      "city_district": "Landkreis Cloppenburg",
      "derived_from": "Cloppenburg",
      "federal_state": "Niedersachsen",
      "area_code": "04471"
    },
    {
      "code": "CLZ",
      "city_district": "Landkreis Goslar",
      "derived_from": "CLausthal-Zellerfeld",
      "federal_state": "Niedersachsen",
      "area_code": "05321"
    },
    {
      "code": "CO",
      "city_district": "Stadt Coburg",
      "derived_from": "Coburg",
      "federal_state": "Bayern",
      "area_code": "09561"
    },
    {
      "code": "COC",
      "city_district": "Landkreis Cochem-Zell",
      "derived_from": "Cochem",
      "federal_state": "Rheinland-Pfalz",
      "area_code": "06131"
    },
    {
      "code": "COE",
      "city_district": "Landkreis Coesfeld",
      "derived_from": "Coesfeld",
      "federal_state": "Nordrhein-Westfalen",
      "area_code": "02541"
    },
    {
      "code": "CR",
      "city_district": "Landkreis Schwäbisch Hall",
      "derived_from": "CRailsheim",
      "federal_state": "Baden-Württemberg",
      "area_code": "0791"
    },
    {
      "code": "CUX",
      "city_district": "Landkreis Cuxhaven",
      "derived_from": "Cuxhaven",
      "federal_state": "Niedersachsen",
      "area_code": "04721"
    },
    {
      "code": "CW",
      "city_district": "Landkreis Calw",
      "derived_from": "Calw",
      "federal_state": "Baden-Württemberg",
      "area_code": "0711"
    },
    {
      "code": "D",
      "city_district": "Stadt Düsseldorf",
      "derived_from": "Düsseldorf",
      "federal_state": "Nordrhein-Westfalen",
      "lat": 51.227741,
      "lng": 6.773456,
      "area_code": "0211"
    },
    {
      "code": "DA",
      "city_district": "Stadt Darmstadt",
      "derived_from": "Darmstadt",
      "federal_state": "Hessen",
      "area_code": "06151"
    },
    {
      "code": "DAH",
      "city_district": "Landkreis Dachau",
      "derived_from": "Dachau",
      "federal_state": "Bayern",
      "area_code": "08131"
    },
    {
      "code": "DAN",
      "city_district": "Landkreis Lüchow-Dannenberg",
      "derived_from": "Dannenberg",
      "federal_state": "Niedersachsen",
      "area_code": "0511"
    },
    {
      "code": "DAU",
      "city_district": "Landkreis Daun",
      "derived_from": "Daun",
      "federal_state": "Rheinland-Pfalz",
      "area_code": "06131"
    },
    {
      "code": "DBR",
      "city_district": "Landkreis Dibern",
      "derived_from": "Dobern",
      "federal_state": "Brandenburg",
      "area_code": "0331"
    },
    {
      "code": "DD",
      "city_district": "Stadt Dresden",
      "derived_from": "Dresden",
      "federal_state": "Sachsen",
      "lat": 51.050409,
      "lng": 13.737262,
      "area_code": "0351"
    },
    {
      "code": "DE",
      "city_district": "Stadt Dessau-Roßlau",
      "derived_from": "Dessau",
      "federal_state": "Sachsen-Anhalt",
      "area_code": "0391"
    },
    {
      "code": "DEG",
      "city_district": "Landkreis Deggendorf",
      "derived_from": "Deggendorf",
      "federal_state": "Bayern",
      "area_code": "0991"
    },
    {
      "code": "DEL",
      "city_district": "Landkreis Delmenhorst",
      "derived_from": "Delmenhorst",
      "federal_state": "Niedersachsen",
      "area_code": "04221"
    },
    {
      "code": "DGF",
      "city_district": "Landkreis Dingolfing-Landau",
      "derived_from": "DinGolFing",
      "federal_state": "Bayern",
      "area_code": "089"
    },
    {
      "code": "DH",
      "city_district": "Landkreis Diepholz",
      "derived_from": "Diepholz",
      "federal_state": "Niedersachsen",
      "area_code": "05441"
    },
    {
      "code": "DI",
      "city_district": "Landkreis Dieburg",
      "derived_from": "Dieburg",
      "federal_state": "Hessen",
      "area_code": "0611"
    },
    {
      "code": "DIL",
      "city_district": "Landkreis Dillkreis",
      "derived_from": "Dillenburg",
      "federal_state": "Hessen",
      "area_code": "0611"
    },
    {
      "code": "DIN",
      "city_district": "Landkreis Dinslaken",
      "derived_from": "Dinslaken",
      "federal_state": "Nordrhein-Westfalen",
      "area_code": "02064"
    },
    {
      "code": "DIZ",
      "city_district": "Rhein-Lahn-Kreis",
      "derived_from": "DIeZ",
      "federal_state": "Rheinland-Pfalz",
      "area_code": "06131"
    },
    {
      "code": "DKB",
      "city_district": "Landkreis Dinkelsbühl",
      "derived_from": "Dinkelsbühl",
      "federal_state": "Bayern",
      "area_code": "089"
    },
    {
      "code": "DL",
      "city_district": "Landkreis Döbeln",
      "derived_from": "Döbeln",
      "federal_state": "Sachsen",
      "area_code": "0351"
    },
    {
      "code": "DLG",
      "city_district": "Landkreis Dillingen an der Donau",
      "derived_from": "Dillingen",
      "federal_state": "Bayern",
      "area_code": "09071"
    },
    {
      "code": "DM",
      "city_district": "Landkreis Demmin",
      "derived_from": "Demmin",
      "federal_state": "Mecklenburg-Vorpommern",
      "area_code": "0385"
    },
    {
      "code": "DN",
      "city_district": "Kreis Düren",
      "derived_from": "Düren",
      "federal_state": "Nordrhein-Westfalen",
      "area_code": "02421"
    },
    {
      "code": "DO",
      "city_district": "Stadt Dortmund",
      "derived_from": "Dortmund",
      "federal_state": "Nordrhein-Westfalen",
      "lat": 51.514244,
      "lng": 7.468429,
      "area_code": "0231"
    },
    {
      "code": "DÖ",
      "city_district": "Landkreis Dömitz",
      "derived_from": "Dömitz",
      "federal_state": "Mecklenburg-Vorpommern",
      "area_code": "0385"
    },
    {
      "code": "DON",
      "city_district": "Landkreis Donau-Ries",
      "derived_from": "Donauwörth",
      "federal_state": "Bayern",
      "area_code": "089"
    },
    {
      "code": "DP",
      "city_district": "Landkreis Deutsch-Polnisch",
      "derived_from": "Deutsch-Polnisch",
      "federal_state": "Brandenburg",
      "area_code": "0331"
    },
    {
      "code": "DR",
      "city_district": "Landkreis Driesen",
      "derived_from": "Driesen",
      "federal_state": "Brandenburg",
      "area_code": "0331"
    },
    {
      "code": "DS",
      "city_district": "Landkreis Donaueschingen",
      "derived_from": "Donaueschingen",
      "federal_state": "Baden-Württemberg",
      "area_code": "0771"
    },
    {
      "code": "DT",
      "city_district": "Landkreis Detmold",
      "derived_from": "Detmold",
      "federal_state": "Nordrhein-Westfalen",
      "area_code": "05231"
    },
    {
      "code": "DU",
      "city_district": "Stadt Duisburg",
      "derived_from": "Duisburg",
      "federal_state": "Nordrhein-Westfalen",
      "lat": 51.434405,
      "lng": 6.762329,
      "area_code": "0203"
    },
    {
      "code": "DUD",
      "city_district": "Landkreis Göttingen ohne die Stadt Göttingen",
      "derived_from": "DUDerstadt",
      "federal_state": "Niedersachsen",
      "area_code": "0551"
    },
    {
      "code": "DÜW",
      "city_district": "Landkreis Bad Dürkheim",
      "derived_from": "Dürkheim",
      "federal_state": "Rheinland-Pfalz",
      "area_code": "06131"
    },
    {
      "code": "DW",
      "city_district": "Landkreis Dippoldiswalde",
      "derived_from": "Dippoldiswalde",
      "federal_state": "Sachsen",
      "area_code": "0351"
    },
    {
      "code": "DZ",
      "city_district": "Landkreis Delitzsch",
      "derived_from": "Delitzsch",
      "federal_state": "Sachsen",
      "area_code": "0351"
    },
    {
      "code": "E",
      "city_district": "Stadt Essen",
      "derived_from": "Essen",
      "federal_state": "Nordrhein-Westfalen",
      "lat": 51.458069,
      "lng": 7.014761,
      "area_code": "0201"
    },
    {
      "code": "EA",
      "city_district": "Landkreis Eisenach",
      "derived_from": "Eisenach",
      "federal_state": "Thüringen",
      "area_code": "03691"
    },
    {
      "code": "EB",
      "city_district": "Landkreis Eilenburg",
      "derived_from": "Eilenburg",
      "federal_state": "Sachsen",
      "area_code": "0351"
    },
    {
      "code": "EBE",
      "city_district": "Landkreis Ebersberg",
      "derived_from": "Ebersberg",
      "federal_state": "Bayern",
      "area_code": "08092"
    },
    {
      "code": "EBN",
      "city_district": "Landkreis Ebern",
      "derived_from": "Ebern",
      "federal_state": "Bayern",
      "area_code": "089"
    },
    {
      "code": "EBS",
      "city_district": "Rheingau-Taunus-Kreis",
      "derived_from": "Eltville, Bad Schwalbach",
      "federal_state": "Hessen",
      "area_code": "0611"
    },
    {
      "code": "ECK",
      "city_district": "Landkreis Eckernförde",
      "derived_from": "Eckernförde",
      "federal_state": "Schleswig-Holstein",
      "area_code": "0431"
    },
    {
      "code": "ED",
      "city_district": "Landkreis Erding",
      "derived_from": "Erding",
      "federal_state": "Bayern",
      "area_code": "08122"
    },
    {
      "code": "EE",
      "city_district": "Landkreis Elbe-Elster",
      "derived_from": "Elbe-Elster",
      "federal_state": "Brandenburg",
      "area_code": "0331"
    },
    {
      "code": "EF",
      "city_district": "Stadt Erfurt",
      "derived_from": "Erfurt",
      "federal_state": "Thüringen",
      "lat": 50.984444,
      "lng": 11.029167,
      "area_code": "0361"
    },
    {
      "code": "EG",
      "city_district": "Landkreis Eggenfelden",
      "derived_from": "Eggenfelden",
      "federal_state": "Bayern",
      "area_code": "089"
    },
    {
      "code": "EH",
      "city_district": "Landkreis Eisenhüttenstadt",
      "derived_from": "Eisenhüttenstadt",
      "federal_state": "Brandenburg",
      "area_code": "0331"
    },
    {
      "code": "EI",
      "city_district": "Landkreis Eichstätt",
      "derived_from": "Eichstätt",
      "federal_state": "Bayern",
      "area_code": "089"
    },
    {
      "code": "EIC",
      "city_district": "Landkreis Eichsfeld",
      "derived_from": "Eichsfeld",
      "federal_state": "Thüringen",
      "area_code": "0361"
    },
    {
      "code": "EIL",
      "city_district": "Landkreis Mansfeld-Südharz",
      "derived_from": "EIsLeben",
      "federal_state": "Sachsen-Anhalt",
      "area_code": "0391"
    },
    {
      "code": "EIN",
      "city_district": "Landkreis Einbeck",
      "derived_from": "Einbeck",
      "federal_state": "Niedersachsen",
      "area_code": "0511"
    },
    {
      "code": "EIS",
      "city_district": "Saale-Orla-Kreis",
      "derived_from": "Eisenberg",
      "federal_state": "Thüringen",
      "area_code": "0361"
    },
    {
      "code": "EL",
      "city_district": "Landkreis Emsland",
      "derived_from": "Emsland",
      "federal_state": "Niedersachsen",
      "area_code": "0511"
    },
    {
      "code": "EM",
      "city_district": "Landkreis Emmendingen",
      "derived_from": "Emmendingen",
      "federal_state": "Baden-Württemberg",
      "area_code": "0711"
    },
    {
      "code": "EMD",
      "city_district": "Stadt Emden",
      "derived_from": "Emden",
      "federal_state": "Niedersachsen",
      "area_code": "04921"
    },
    {
      "code": "EMS",
      "city_district": "Rhein-Lahn-Kreis",
      "derived_from": "Bad Ems",
      "federal_state": "Rheinland-Pfalz",
      "area_code": "06131"
    },
    {
      "code": "EN",
      "city_district": "Ennepe-Ruhr-Kreis",
      "derived_from": "Ennepe",
      "federal_state": "Nordrhein-Westfalen",
      "area_code": "0211"
    },
    {
      "code": "ER",
      "city_district": "Stadt Erlangen",
      "derived_from": "Erlangen",
      "federal_state": "Bayern",
      "lat": 49.5975,
      "lng": 11.004167,
      "area_code": "09131"
    },
    {
      "code": "ERB",
      "city_district": "Odenwaldkreis",
      "derived_from": "Erbach",
      "federal_state": "Hessen",
      "area_code": "0611"
    },
    {
      "code": "ERH",
      "city_district": "Landkreis Erlangen-Höchstadt",
      "derived_from": "Erlangen-Höchstadt",
      "federal_state": "Bayern",
      "area_code": "09131"
    },
    {
      "code": "ERK",
      "city_district": "Landkreis Erkelenz",
      "derived_from": "Erkelenz",
      "federal_state": "Nordrhein-Westfalen",
      "area_code": "0211"
    },
    {
      "code": "ERZ",
      "city_district": "Erzgebirgskreis",
      "derived_from": "Erzgebirge",
      "federal_state": "Sachsen",
      "area_code": "0351"
    },
    {
      "code": "ES",
      "city_district": "Landkreis Esslingen",
      "derived_from": "Esslingen",
      "federal_state": "Baden-Württemberg",
      "area_code": "0711"
    },
    {
      "code": "ESB",
      "city_district": "Landkreis Eschenbach",
      "derived_from": "Eschenbach",
      "federal_state": "Bayern",
      "area_code": "089"
    },
    {
      "code": "ESW",
      "city_district": "Landkreis Eschwege",
      "derived_from": "Eschwege",
      "federal_state": "Hessen",
      "area_code": "0611"
    },
    {
      "code": "EU",
      "city_district": "Landkreis Euskirchen",
      "derived_from": "Euskirchen",
      "federal_state": "Nordrhein-Westfalen",
      "area_code": "02251"
    },
    {
      "code": "EW",
      "city_district": "Landkreis Eberswalde",
      "derived_from": "Eberswalde",
      "federal_state": "Brandenburg",
      "area_code": "0331"
    },
    {
      "code": "F",
      "city_district": "Stadt Frankfurt am Main",
      "derived_from": "Frankfurt",
      "federal_state": "Hessen",
      "lat": 50.110924,
      "lng": 8.682127,
      "area_code": "069"
    },
    {
      "code": "FB",
      "city_district": "Wetteraukreis",
      "derived_from": "Friedberg",
      "federal_state": "Hessen",
      "area_code": "06031"
    },
    {
      "code": "FD",
      "city_district": "Landkreis Fulda",
      "derived_from": "Fulda",
      "federal_state": "Hessen",
      "area_code": "0661"
    },
    {
      "code": "FDB",
      "city_district": "Landkreis Friedberg",
      "derived_from": "Friedberg",
      "federal_state": "Bayern",
      "area_code": "06031"
    },
    {
      "code": "FDS",
      "city_district": "Landkreis Freudenstadt",
      "derived_from": "Freudenstadt",
      "federal_state": "Baden-Württemberg",
      "area_code": "07441"
    },
    {
      "code": "FEU",
      "city_district": "Landkreis Feuchtwangen",
      "derived_from": "Feuchtwangen",
      "federal_state": "Bayern",
      "area_code": "089"
    },
    {
      "code": "FF",
      "city_district": "Stadt Frankfurt (Oder)",
      "derived_from": "Frankfurt",
      "federal_state": "Brandenburg",
      "area_code": "069"
    },
    {
      "code": "FFB",
      "city_district": "Landkreis Fürstenfeldbruck",
      "derived_from": "Fürstenfeldbruck",
      "federal_state": "Bayern",
      "area_code": "08141"
    },
    {
      "code": "FG",
      "city_district": "Landkreis Freiberg",
      "derived_from": "Freiberg",
      "federal_state": "Sachsen",
      "area_code": "0351"
    },
    {
      "code": "FI",
      "city_district": "Landkreis Finsterwalde",
      "derived_from": "Finsterwalde",
      "federal_state": "Brandenburg",
      "area_code": "0331"
    },
    {
      "code": "FIN",
      "city_district": "Landkreis Finnentrop",
      "derived_from": "Finnentrop",
      "federal_state": "Nordrhein-Westfalen",
      "area_code": "0211"
    },
    {
      "code": "FKB",
      "city_district": "Landkreis Waldeck-Frankenberg",
      "derived_from": "FranKenBerg",
      "federal_state": "Hessen",
      "area_code": "0611"
    },
    {
      "code": "FL",
      "city_district": "Stadt Flensburg",
      "derived_from": "Flensburg",
      "federal_state": "Schleswig-Holstein",
      "area_code": "0461"
    },
    {
      "code": "FLÖ",
      "city_district": "Landkreis Flöha",
      "derived_from": "Flöha",
      "federal_state": "Sachsen",
      "area_code": "0351"
    },
    {
      "code": "FN",
      "city_district": "Bodenseekreis",
      "derived_from": "Friedrichshafen",
      "federal_state": "Baden-Württemberg",
      "area_code": "07541"
    },
    {
      "code": "FO",
      "city_district": "Landkreis Forchheim",
      "derived_from": "Forchheim",
      "federal_state": "Bayern",
      "area_code": "09191"
    },
    {
      "code": "FOR",
      "city_district": "Landkreis Forst",
      "derived_from": "Forst",
      "federal_state": "Brandenburg",
      "area_code": "0331"
    },
    {
      "code": "FR",
      "city_district": "Stadt Freiburg im Breisgau",
      "derived_from": "Freiburg",
      "federal_state": "Baden-Württemberg",
      "lat": 47.999882,
      "lng": 7.842104,
      "area_code": "0761"
    },
    {
      "code": "FRG",
      "city_district": "Landkreis Freyung-Grafenau",
      "derived_from": "Freyung-Grafenau",
      "federal_state": "Bayern",
      "area_code": "08551"
    },
    {
      "code": "FRI",
      "city_district": "Landkreis Friesland",
      "derived_from": "Friesland",
      "federal_state": "Niedersachsen",
      "area_code": "0511"
    },
    {
      "code": "FRW",
      "city_district": "Landkreis Bad Freienwalde",
      "derived_from": "Freienwalde",
      "federal_state": "Brandenburg",
      "area_code": "0331"
    },
    {
      "code": "FS",
      "city_district": "Landkreis Freising",
      "derived_from": "Freising",
      "federal_state": "Bayern",
      "area_code": "08161"
    },
    {
      "code": "FT",
      "city_district": "Landkreis Frankenthal",
      "derived_from": "Frankenthal",
      "federal_state": "Rheinland-Pfalz",
      "area_code": "06233"
    },
    {
      "code": "FTL",
      "city_district": "Landkreis Sächsische Schweiz-Osterzgebirge",
      "derived_from": "FreiTaL",
      "federal_state": "Sachsen",
      "area_code": "0351"
    },
    {
      "code": "FÜ",
      "city_district": "Stadt Fürth",
      "derived_from": "Fürth",
      "federal_state": "Bayern",
      "lat": 49.477778,
      "lng": 10.988611,
      "area_code": "0911"
    },
    {
      "code": "FÜS",
      "city_district": "Landkreis Füssen",
      "derived_from": "Füssen",
      "federal_state": "Bayern",
      "area_code": "089"
    },
    {
      "code": "FW",
      "city_district": "Landkreis Fürstenwalde",
      "derived_from": "Fürstenwalde",
      "federal_state": "Brandenburg",
      "area_code": "0331"
    },
    {
      "code": "FZ",
      "city_district": "Landkreis Fritzlar-Homberg",
      "derived_from": "Fritzlar",
      "federal_state": "Hessen",
      "area_code": "0611"
    },
    {
      "code": "G",
      "city_district": "Stadt Gera",
      "derived_from": "Gera",
      "federal_state": "Thüringen",
      "area_code": "0365"
    },
    {
      "code": "GA",
      "city_district": "Landkreis Gardelegen",
      "derived_from": "Gardelegen",
      "federal_state": "Sachsen-Anhalt",
      "area_code": "0391"
    },
    {
      "code": "GAN",
      "city_district": "Landkreis Garmisch-Partenkirchen",
      "derived_from": "Garmisch",
      "federal_state": "Bayern",
      "area_code": "08821"
    },
    {
      "code": "GAP",
      "city_district": "Landkreis Garmisch-Partenkirchen",
      "derived_from": "Garmisch-Partenkirchen",
      "federal_state": "Bayern",
      "area_code": "08821"
    },
    {
      "code": "GC",
      "city_district": "Landkreis Glauchau",
      "derived_from": "Glauchau",
      "federal_state": "Sachsen",
      "area_code": "0351"
    },
    {
      "code": "GD",
      "city_district": "Landkreis Gütersloh",
      "derived_from": "Gütersloh",
      "federal_state": "Nordrhein-Westfalen",
      "area_code": "05241"
    },
    {
      "code": "GDB",
      "city_district": "Landkreis Gadebusch",
      "derived_from": "Gadebusch",
      "federal_state": "Mecklenburg-Vorpommern",
      "area_code": "0385"
    },
    {
      "code": "GE",
      "city_district": "Stadt Gelsenkirchen",
      "derived_from": "Gelsenkirchen",
      "federal_state": "Nordrhein-Westfalen",
      "lat": 51.517744,
      "lng": 7.085716,
      "area_code": "0209"
    },
    {
      "code": "GEL",
      "city_district": "Landkreis Geldern",
      "derived_from": "Geldern",
      "federal_state": "Nordrhein-Westfalen",
      "area_code": "0211"
    },
    {
      "code": "GEO",
      "city_district": "Landkreis Gerolzhofen",
      "derived_from": "Gerolzhofen",
      "federal_state": "Bayern",
      "area_code": "089"
    },
    {
      "code": "GER",
      "city_district": "Landkreis Germersheim",
      "derived_from": "Germersheim",
      "federal_state": "Rheinland-Pfalz",
      "area_code": "06131"
    },
    {
      "code": "GF",
      "city_district": "Landkreis Gifhorn",
      "derived_from": "Gifhorn",
      "federal_state": "Niedersachsen",
      "area_code": "0511"
    },
    {
      "code": "GG",
      "city_district": "Landkreis Groß-Gerau",
      "derived_from": "Groß-Gerau",
      "federal_state": "Hessen",
      "area_code": "0611"
    },
    {
      "code": "GHA",
      "city_district": "Landkreis Geithain",
      "derived_from": "Geithain",
      "federal_state": "Sachsen",
      "area_code": "0351"
    },
    {
      "code": "GHC",
      "city_district": "Landkreis Gelnhausen",
      "derived_from": "Gelnhausen",
      "federal_state": "Hessen",
      "area_code": "0611"
    },
    {
      "code": "GI",
      "city_district": "Landkreis Gießen",
      "derived_from": "Gießen",
      "federal_state": "Hessen",
      "area_code": "0641"
    },
    {
      "code": "GK",
      "city_district": "Landkreis Geilenkirchen",
      "derived_from": "Geilenkirchen",
      "federal_state": "Nordrhein-Westfalen",
      "area_code": "0211"
    },
    {
      "code": "GL",
      "city_district": "Rheinisch-Bergischer Kreis",
      "derived_from": "Bergisch Gladbach",
      "federal_state": "Nordrhein-Westfalen",
      "lat": 50.985556,
      "lng": 7.131944,
      "area_code": "02202"
    },
    {
      "code": "GLA",
      "city_district": "Landkreis Gladbeck",
      "derived_from": "Gladbeck",
      "federal_state": "Nordrhein-Westfalen",
      "area_code": "02043"
    },
    {
      "code": "GM",
      "city_district": "Landkreis Gummersbach",
      "derived_from": "Gummersbach",
      "federal_state": "Nordrhein-Westfalen",
      "area_code": "0211"
    },
    {
      "code": "GMN",
      "city_district": "Landkreis Grimmen",
      "derived_from": "Grimmen",
      "federal_state": "Mecklenburg-Vorpommern",
      "area_code": "0385"
    },
    {
      "code": "GN",
      "city_district": "Landkreis Gelnhausen",
      "derived_from": "Gelnhausen",
      "federal_state": "Hessen",
      "area_code": "0611"
    },
    {
      "code": "GNT",
      "city_district": "Landkreis Genthin",
      "derived_from": "Genthin",
      "federal_state": "Sachsen-Anhalt",
      "area_code": "0391"
    },
    {
      "code": "GO",
      "city_district": "Landkreis Göttingen",
      "derived_from": "Göttingen",
      "federal_state": "Niedersachsen",
      "lat": 51.533889,
      "lng": 9.9375,
      "area_code": "0551"
    },
    {
      "code": "GOA",
      "city_district": "Landkreis Gotha",
      "derived_from": "Gotha",
      "federal_state": "Thüringen",
      "area_code": "03621"
    },
    {
      "code": "GOH",
      "city_district": "Landkreis Görlitz",
      "derived_from": "Görlitz",
      "federal_state": "Sachsen",
      "area_code": "03581"
    },
    {
      "code": "GP",
      "city_district": "Landkreis Göppingen",
      "derived_from": "Göppingen",
      "federal_state": "Baden-Württemberg",
      "area_code": "0711"
    },
    {
      "code": "GR",
      "city_district": "Landkreis Görlitz",
      "derived_from": "Görlitz",
      "federal_state": "Sachsen",
      "area_code": "03581"
    },
    {
      "code": "GRA",
      "city_district": "Landkreis Grafenau",
      "derived_from": "Grafenau",
      "federal_state": "Bayern",
      "area_code": "089"
    },
    {
      "code": "GRH",
      "city_district": "Landkreis Großenhain",
      "derived_from": "Großenhain",
      "federal_state": "Sachsen",
      "area_code": "0351"
    },
    {
      "code": "GRI",
      "city_district": "Landkreis Griesbach",
      "derived_from": "Griesbach",
      "federal_state": "Bayern",
      "area_code": "089"
    },
    {
      "code": "GRM",
      "city_district": "Landkreis Grimma",
      "derived_from": "Grimma",
      "federal_state": "Sachsen",
      "area_code": "0351"
    },
    {
      "code": "GRZ",
      "city_district": "Landkreis Greiz",
      "derived_from": "Greiz",
      "federal_state": "Thüringen",
      "area_code": "03661"
    },
    {
      "code": "GS",
      "city_district": "Landkreis Goslar",
      "derived_from": "Goslar",
      "federal_state": "Niedersachsen",
      "area_code": "05321"
    },
    {
      "code": "GT",
      "city_district": "Kreis Gütersloh",
      "derived_from": "Gütersloh",
      "federal_state": "Nordrhein-Westfalen",
      "area_code": "05241"
    },
    {
      "code": "GTH",
      "city_district": "Landkreis Gotha",
      "derived_from": "Gotha",
      "federal_state": "Thüringen",
      "area_code": "03621"
    },
    {
      "code": "GÜ",
      "city_district": "Landkreis Güstrow",
      "derived_from": "Güstrow",
      "federal_state": "Mecklenburg-Vorpommern",
      "area_code": "0385"
    },
    {
      "code": "GUB",
      "city_district": "Landkreis Guben",
      "derived_from": "Guben",
      "federal_state": "Brandenburg",
      "area_code": "0331"
    },
    {
      "code": "GUN",
      "city_district": "Landkreis Gunzenhausen",
      "derived_from": "Gunzenhausen",
      "federal_state": "Bayern",
      "area_code": "089"
    },
    {
      "code": "GV",
      "city_district": "Landkreis Grevenbroich",
      "derived_from": "Grevenbroich",
      "federal_state": "Nordrhein-Westfalen",
      "area_code": "0211"
    },
    {
      "code": "GVM",
      "city_district": "ehemaliger Kreis Grevesmühlen",
      "derived_from": "GreVesMühlen",
      "federal_state": "Mecklenburg-Vorpommern",
      "area_code": "0385"
    },
    {
      "code": "GW",
      "city_district": "Landkreis Greifswald",
      "derived_from": "Greifswald",
      "federal_state": "Mecklenburg-Vorpommern",
      "area_code": "03834"
    },
    {
      "code": "GY",
      "city_district": "Landkreis Gütersloh",
      "derived_from": "Gütersloh",
      "federal_state": "Nordrhein-Westfalen",
      "area_code": "05241"
    },
    {
      "code": "GZ",
      "city_district": "Landkreis Günzburg",
      "derived_from": "Günzburg",
      "federal_state": "Bayern",
      "area_code": "08221"
    },
    {
      "code": "H",
      "city_district": "Region Hannover Stadt Hannover übrige Region",
      "derived_from": "Hannover",
      "federal_state": "Niedersachsen",
      "lat": 52.370216,
      "lng": 9.73205,
      "area_code": "0511"
    },
    {
      "code": "HA",
      "city_district": "Stadt Hagen",
      "derived_from": "Hagen",
      "federal_state": "Nordrhein-Westfalen",
      "lat": 51.367881,
      "lng": 7.463236,
      "area_code": "02331"
    },
    {
      "code": "HAB",
      "city_district": "Landkreis Bad Kissingen",
      "derived_from": "Hammelburg",
      "federal_state": "Bayern",
      "area_code": "0971"
    },
    {
      "code": "HAL",
      "city_district": "Stadt Halle (Saale)",
      "derived_from": "Halle",
      "federal_state": "Sachsen-Anhalt",
      "lat": 51.482577,
      "lng": 11.969639,
      "area_code": "0345"
    },
    {
      "code": "HAM",
      "city_district": "Stadt Hamm",
      "derived_from": "Hamm",
      "federal_state": "Nordrhein-Westfalen",
      "lat": 51.679669,
      "lng": 7.814298,
      "area_code": "02381"
    },
    {
      "code": "HAS",
      "city_district": "Landkreis Haßberge",
      "derived_from": "Haßberge",
      "federal_state": "Bayern",
      "area_code": "089"
    },
    {
      "code": "HB",
      "city_district": "Freie Hansestadt Bremen",
      "derived_from": "Hansestadt Bremen",
      "federal_state": "Bremen",
      "area_code": "0421"
    },
    {
      "code": "HBN",
      "city_district": "Landkreis Hildburghausen",
      "derived_from": "Hildburghausen",
      "federal_state": "Thüringen",
      "area_code": "0361"
    },
    {
      "code": "HBS",
      "city_district": "Landkreis Halberstadt",
      "derived_from": "Halberstadt",
      "federal_state": "Sachsen-Anhalt",
      "area_code": "03941"
    },
    {
      "code": "HC",
      "city_district": "Landkreis Hainichen",
      "derived_from": "Hainichen",
      "federal_state": "Sachsen",
      "area_code": "0351"
    },
    {
      "code": "HCH",
      "city_district": "Landkreis Freudenstadt",
      "derived_from": "HeCHingen",
      "federal_state": "Baden-Württemberg",
      "area_code": "07441"
    },
    {
      "code": "HD",
      "city_district": "Rhein-Neckar-Kreis",
      "derived_from": "Heidelberg",
      "federal_state": "Baden-Württemberg",
      "lat": 49.39875,
      "lng": 8.672434,
      "area_code": "06221"
    },
    {
      "code": "HDH",
      "city_district": "Landkreis Heidenheim",
      "derived_from": "Heidenheim",
      "federal_state": "Baden-Württemberg",
      "area_code": "07321"
    },
    {
      "code": "HDL",
      "city_district": "Landkreis Börde",
      "derived_from": "HalDensLeben",
      "federal_state": "Sachsen-Anhalt",
      "area_code": "0391"
    },
    {
      "code": "HE",
      "city_district": "Landkreis Helmstedt",
      "derived_from": "Helmstedt",
      "federal_state": "Niedersachsen",
      "area_code": "05351"
    },
    {
      "code": "HEB",
      "city_district": "Landkreis Hersbruck",
      "derived_from": "Hersbruck",
      "federal_state": "Bayern",
      "area_code": "089"
    },
    {
      "code": "HEF",
      "city_district": "Landkreis Hersfeld-Rotenburg",
      "derived_from": "Hersfeld",
      "federal_state": "Hessen",
      "area_code": "0611"
    },
    {
      "code": "HEI",
      "city_district": "Landkreis Dithmarschen",
      "derived_from": "Heide",
      "federal_state": "Schleswig-Holstein",
      "area_code": "0431"
    },
    {
      "code": "HEL",
      "city_district": "Hessischer Landtag",
      "derived_from": "Hessen",
      "federal_state": "Hessen",
      "area_code": "0611"
    },
    {
      "code": "HER",
      "city_district": "Stadt Herne",
      "derived_from": "Herne",
      "federal_state": "Nordrhein-Westfalen",
      "lat": 51.538353,
      "lng": 7.225761,
      "area_code": "02323"
    },
    {
      "code": "HET",
      "city_district": "Landkreis Hettstedt",
      "derived_from": "Hettstedt",
      "federal_state": "Sachsen-Anhalt",
      "area_code": "0391"
    },
    {
      "code": "HF",
      "city_district": "Kreis Herford",
      "derived_from": "Herford",
      "federal_state": "Nordrhein-Westfalen",
      "area_code": "05221"
    },
    {
      "code": "HG",
      "city_district": "Hochtaunuskreis",
      "derived_from": "Bad Homburg",
      "federal_state": "Hessen",
      "area_code": "0611"
    },
    {
      "code": "HGN",
      "city_district": "Landkreis Ludwigslust-Parchim",
      "derived_from": "HaGeNow",
      "federal_state": "Mecklenburg-Vorpommern",
      "area_code": "03874"
    },
    {
      "code": "HGW",
      "city_district": "Stadt Greifswald",
      "derived_from": "Hansestadt GreifsWald",
      "federal_state": "Mecklenburg-Vorpommern",
      "area_code": "03834"
    },
    {
      "code": "HH",
      "city_district": "Freie und Hansestadt Hamburg",
      "derived_from": "Hansestadt Hamburg",
      "federal_state": "Hamburg",
      "area_code": "040"
    },
    {
      "code": "HHM",
      "city_district": "Burgenlandkreis",
      "derived_from": "HoHenMölsen",
      "federal_state": "Sachsen-Anhalt",
      "area_code": "0391"
    },
    {
      "code": "HI",
      "city_district": "Landkreis Hildesheim",
      "derived_from": "Hildesheim",
      "federal_state": "Niedersachsen",
      "lat": 52.155833,
      "lng": 9.951944,
      "area_code": "05121"
    },
    {
      "code": "HIG",
      "city_district": "Landkreis Eichsfeld",
      "derived_from": "Heiligenstadt",
      "federal_state": "Thüringen",
      "area_code": "0361"
    },
    {
      "code": "HIP",
      "city_district": "Landkreis Roth",
      "derived_from": "HIlPoltstein",
      "federal_state": "Bayern",
      "area_code": "089"
    },
    {
      "code": "HK",
      "city_district": "Landkreis Heidekreis",
      "derived_from": "Heidekreis",
      "federal_state": "Niedersachsen",
      "area_code": "0511"
    },
    {
      "code": "HL",
      "city_district": "Hansestadt Lübeck",
      "derived_from": "Hansestadt Lübeck",
      "federal_state": "Schleswig-Holstein",
      "area_code": "0451"
    },
    {
      "code": "HM",
      "city_district": "Landkreis Hameln-Pyrmont",
      "derived_from": "Hameln",
      "federal_state": "Niedersachsen",
      "area_code": "05151"
    },
    {
      "code": "HMÜ",
      "city_district": "Landkreis Göttingen",
      "derived_from": "Hann. Münden",
      "federal_state": "Niedersachsen",
      "area_code": "0551"
    },
    {
      "code": "HN",
      "city_district": "Stadt Heilbronn",
      "derived_from": "Heilbronn",
      "federal_state": "Baden-Württemberg",
      "lat": 49.142222,
      "lng": 9.218611,
      "area_code": "07131"
    },
    {
      "code": "HO",
      "city_district": "Landkreis und Stadt Hof",
      "derived_from": "Hof",
      "federal_state": "Bayern",
      "area_code": "0231"
    },
    {
      "code": "HOG",
      "city_district": "Landkreis Wunsiedel im Fichtelgebirge",
      "derived_from": "Hof an der Saale (Hochfranken)",
      "federal_state": "Bayern",
      "area_code": "09281"
    },
    {
      "code": "HOH",
      "city_district": "Landkreis Hof",
      "derived_from": "Naila-Hohenberg",
      "federal_state": "Bayern",
      "area_code": "09281"
    },
    {
      "code": "HOL",
      "city_district": "Landkreis Holzminden",
      "derived_from": "Holzminden",
      "federal_state": "Niedersachsen",
      "area_code": "0511"
    },
    {
      "code": "HOM",
      "city_district": "Saarpfalz-Kreis",
      "derived_from": "Homburg",
      "federal_state": "Saarland",
      "area_code": "0681"
    },
    {
      "code": "HOR",
      "city_district": "Landkreis Rottweil",
      "derived_from": "Horb am Neckar",
      "federal_state": "Baden-Württemberg",
      "area_code": "0741"
    },
    {
      "code": "HÖS",
      "city_district": "Landkreis Haßberge",
      "derived_from": "Höchstadt an der Aisch",
      "federal_state": "Bayern",
      "area_code": "089"
    },
    {
      "code": "HOT",
      "city_district": "Landkreis Zwickau",
      "derived_from": "Hohenstein-Ernstthal",
      "federal_state": "Sachsen",
      "area_code": "0375"
    },
    {
      "code": "HP",
      "city_district": "Kreis Bergstraße",
      "derived_from": "Heppenheim",
      "federal_state": "Hessen",
      "area_code": "0611"
    },
    {
      "code": "HR",
      "city_district": "Schwalm-Eder-Kreis",
      "derived_from": "Homberg (Efze)",
      "federal_state": "Hessen",
      "area_code": "0611"
    },
    {
      "code": "HRO",
      "city_district": "Hansestadt Rostock",
      "derived_from": "Hansestadt Rostock",
      "federal_state": "Mecklenburg-Vorpommern",
      "area_code": "0381"
    },
    {
      "code": "HS",
      "city_district": "Kreis Heinsberg",
      "derived_from": "Heinsberg",
      "federal_state": "Nordrhein-Westfalen",
      "area_code": "02452"
    },
    {
      "code": "HSK",
      "city_district": "Hochsauerlandkreis",
      "derived_from": "Hochsauerlandkreis",
      "federal_state": "Nordrhein-Westfalen",
      "area_code": "0211"
    },
    {
      "code": "HST",
      "city_district": "Stadt Stralsund",
      "derived_from": "Hansestadt STralsund",
      "federal_state": "Mecklenburg-Vorpommern",
      "area_code": "03831"
    },
    {
      "code": "HU",
      "city_district": "Main-Kinzig-Kreis",
      "derived_from": "Hanau",
      "federal_state": "Hessen",
      "area_code": "0611"
    },
    {
      "code": "HÜN",
      "city_district": "Main-Kinzig-Kreis",
      "derived_from": "Hünfeld",
      "federal_state": "Hessen",
      "area_code": "0611"
    },
    {
      "code": "HV",
      "city_district": "Landkreis Stendal",
      "derived_from": "HaVelberg",
      "federal_state": "Sachsen-Anhalt",
      "area_code": "03931"
    },
    {
      "code": "HVL",
      "city_district": "Landkreis Havelland",
      "derived_from": "Havelland",
      "federal_state": "Brandenburg",
      "area_code": "0331"
    },
    {
      "code": "HW",
      "city_district": "Landkreis Hallein (Saale, historisch)",
      "derived_from": "Hallein",
      "federal_state": "Sachsen-Anhalt",
      "area_code": "0345"
    },
    {
      "code": "HWI",
      "city_district": "Hansestadt Wismar",
      "derived_from": "Hansestadt Wismar",
      "federal_state": "Mecklenburg-Vorpommern",
      "area_code": "0385"
    },
    {
      "code": "HX",
      "city_district": "Kreis Höxter",
      "derived_from": "Höxter",
      "federal_state": "Nordrhein-Westfalen",
      "area_code": "05271"
    },
    {
      "code": "HY",
      "city_district": "Landkreis Bautzen",
      "derived_from": "Hoyerswerda",
      "federal_state": "Sachsen",
      "area_code": "03591"
    },
    {
      "code": "HZ",
      "city_district": "Landkreis Harz",
      "derived_from": "Herzberg/Harz",
      "federal_state": "Sachsen-Anhalt",
      "area_code": "0391"
    },
    {
      "code": "IGB",
      "city_district": "Stadt St. Ingbert",
      "derived_from": "Ingbert",
      "federal_state": "Saarland",
      "area_code": "0681"
    },
    {
      "code": "IK",
      "city_district": "Ilm-Kreis",
      "derived_from": "Ilm-Kreis",
      "federal_state": "Thüringen",
      "area_code": "0361"
    },
    {
      "code": "IL",
      "city_district": "Ilm-Kreis",
      "derived_from": "Ilmenau",
      "federal_state": "Thüringen",
      "area_code": "0361"
    },
    {
      "code": "ILL",
      "city_district": "Landkreis Neu-Ulm",
      "derived_from": "Illertissen",
      "federal_state": "Bayern",
      "area_code": "0731"
    },
    {
      "code": "IN",
      "city_district": "Stadt Ingolstadt",
      "derived_from": "Ingolstadt",
      "federal_state": "Bayern",
      "lat": 48.763611,
      "lng": 11.424167,
      "area_code": "0841"
    },
    {
      "code": "IZ",
      "city_district": "Kreis Steinburg",
      "derived_from": "Itzehoe",
      "federal_state": "Schleswig-Holstein",
      "area_code": "0431"
    },
    {
      "code": "J",
      "city_district": "Stadt Jena",
      "derived_from": "Jena",
      "federal_state": "Thüringen",
      "lat": 50.927222,
      "lng": 11.586111,
      "area_code": "03641"
    },
    {
      "code": "JB",
      "city_district": "Landkreis Teltow-Fläming",
      "derived_from": "JüterBog",
      "federal_state": "Brandenburg",
      "area_code": "0331"
    },
    {
      "code": "JE",
      "city_district": "Landkreis Jerichower Land",
      "derived_from": "Jerichow",
      "federal_state": "Sachsen-Anhalt",
      "area_code": "0391"
    },
    {
      "code": "JL",
      "city_district": "Landkreis Jerichower Land",
      "derived_from": "Jerichower Land",
      "federal_state": "Sachsen-Anhalt",
      "area_code": "0391"
    },
    {
      "code": "K",
      "city_district": "Stadt Köln",
      "derived_from": "Köln",
      "federal_state": "Nordrhein-Westfalen",
      "lat": 50.937531,
      "lng": 6.960279,
      "area_code": "0221"
    },
    {
      "code": "KA",
      "city_district": "Landkreis Karlsruhe",
      "derived_from": "Karlsruhe",
      "federal_state": "Baden-Württemberg",
      "lat": 49.006889,
      "lng": 8.403653,
      "area_code": "0721"
    },
    {
      "code": "KB",
      "city_district": "Landkreis Waldeck-Frankenberg",
      "derived_from": "KorBach",
      "federal_state": "Hessen",
      "area_code": "0611"
    },
    {
      "code": "KC",
      "city_district": "Landkreis Kronach",
      "derived_from": "KronaCh",
      "federal_state": "Bayern",
      "area_code": "089"
    },
    {
      "code": "KE",
      "city_district": "Stadt Kempten",
      "derived_from": "KEmpten",
      "federal_state": "Bayern",
      "area_code": "0831"
    },
    {
      "code": "KEH",
      "city_district": "Landkreis Kelheim",
      "derived_from": "KElHeim",
      "federal_state": "Bayern",
      "area_code": "089"
    },
    {
      "code": "KEL",
      "city_district": "Ortenaukreis",
      "derived_from": "KEhL",
      "federal_state": "Baden-Württemberg",
      "area_code": "0711"
    },
    {
      "code": "KEM",
      "city_district": "Landkreis Bayreuth",
      "derived_from": "KEMnath",
      "federal_state": "Bayern",
      "area_code": "0921"
    },
    {
      "code": "KF",
      "city_district": "Stadt Kaufbeuren",
      "derived_from": "KauFbeuren",
      "federal_state": "Bayern",
      "area_code": "089"
    },
    {
      "code": "KG",
      "city_district": "Landkreis Bad Kissingen",
      "derived_from": "KissinGen",
      "federal_state": "Bayern",
      "area_code": "0971"
    },
    {
      "code": "KH",
      "city_district": "Landkreis Bad Kreuznach",
      "derived_from": "KreuznacH",
      "federal_state": "Rheinland-Pfalz",
      "area_code": "0671"
    },
    {
      "code": "KI",
      "city_district": "Stadt Kiel",
      "derived_from": "KIel",
      "federal_state": "Schleswig-Holstein",
      "area_code": "0431"
    },
    {
      "code": "KIB",
      "city_district": "Donnersbergkreis",
      "derived_from": "KIrchheimBolanden",
      "federal_state": "Rheinland-Pfalz",
      "area_code": "06131"
    },
    {
      "code": "KK",
      "city_district": "Kreis Viersen",
      "derived_from": "Kempen, Krefeld",
      "federal_state": "Nordrhein-Westfalen",
      "area_code": "02162"
    },
    {
      "code": "KL",
      "city_district": "Stadt Kaiserslautern",
      "derived_from": "KaisersLautern",
      "federal_state": "Rheinland-Pfalz",
      "area_code": "0631"
    },
    {
      "code": "KLE",
      "city_district": "Kreis Kleve",
      "derived_from": "KLEve",
      "federal_state": "Nordrhein-Westfalen",
      "area_code": "02821"
    },
    {
      "code": "KLZ",
      "city_district": "Altmarkkreis Salzwedel",
      "derived_from": "KLötZe",
      "federal_state": "Sachsen-Anhalt",
      "area_code": "0391"
    },
    {
      "code": "KM",
      "city_district": "Landkreis Bautzen",
      "derived_from": "KaMenz",
      "federal_state": "Sachsen",
      "area_code": "03591"
    },
    {
      "code": "KN",
      "city_district": "Landkreis Konstanz ohne die Gemeinde Büsingen am Hochrhein",
      "derived_from": "KoNstanz",
      "federal_state": "Baden-Württemberg",
      "area_code": "07531"
    },
    {
      "code": "KO",
      "city_district": "Stadt Koblenz",
      "derived_from": "KOblenz",
      "federal_state": "Rheinland-Pfalz",
      "area_code": "0261"
    },
    {
      "code": "KR",
      "city_district": "Stadt Krefeld",
      "derived_from": "KRefeld",
      "federal_state": "Nordrhein-Westfalen",
      "area_code": "02151"
    },
    {
      "code": "KRU",
      "city_district": "Landkreis Günzburg",
      "derived_from": "KRUmbach",
      "federal_state": "Bayern",
      "area_code": "08221"
    },
    {
      "code": "KS",
      "city_district": "Landkreis Kassel und Stadt Kassel",
      "derived_from": "KasSel",
      "federal_state": "Hessen",
      "area_code": "0561"
    },
    {
      "code": "KT",
      "city_district": "Landkreis Kitzingen",
      "derived_from": "KiTzingen",
      "federal_state": "Bayern",
      "area_code": "089"
    },
    {
      "code": "KU",
      "city_district": "Landkreis Kulmbach",
      "derived_from": "KUlmbach",
      "federal_state": "Bayern",
      "area_code": "089"
    },
    {
      "code": "KUS",
      "city_district": "Landkreis Kusel",
      "derived_from": "KUSel",
      "federal_state": "Rheinland-Pfalz",
      "area_code": "06131"
    },
    {
      "code": "KW",
      "city_district": "Landkreis Dahme-Spreewald",
      "derived_from": "Königs Wusterhausen",
      "federal_state": "Brandenburg",
      "area_code": "0331"
    },
    {
      "code": "KY",
      "city_district": "Landkreis Ostprignitz-Ruppin",
      "derived_from": "KYritz",
      "federal_state": "Brandenburg",
      "area_code": "0331"
    },
    {
      "code": "KYF",
      "city_district": "Kyffhäuserkreis",
      "derived_from": "KYFfhäuser",
      "federal_state": "Thüringen",
      "area_code": "0361"
    },
    {
      "code": "L",
      "city_district": "Stadt Leipzig",
      "derived_from": "Leipzig",
      "federal_state": "Sachsen",
      "lat": 51.339695,
      "lng": 12.373075,
      "area_code": "0341"
    },
    {
      "code": "LA",
      "city_district": "Stadt Landshut",
      "derived_from": "LAndshut",
      "federal_state": "Bayern",
      "area_code": "0871"
    },
    {
      "code": "LAN",
      "city_district": "Landkreis Dingolfing-Landau",
      "derived_from": "LANdau",
      "federal_state": "Bayern",
      "area_code": "089"
    },
    {
      "code": "LAU",
      "city_district": "Landkreis Nürnberger Land",
      "derived_from": "LAUf",
      "federal_state": "Bayern",
      "area_code": "0911"
    },
    {
      "code": "LB",
      "city_district": "Landkreis Ludwigsburg",
      "derived_from": "LudwigsBurg",
      "federal_state": "Baden-Württemberg",
      "area_code": "07141"
    },
    {
      "code": "LBS",
      "city_district": "Saale-Orla-Kreis",
      "derived_from": "LoBenStein",
      "federal_state": "Thüringen",
      "area_code": "0361"
    },
    {
      "code": "LBZ",
      "city_district": "Landkreis Ludwigslust-Parchim",
      "derived_from": "LüBZ",
      "federal_state": "Mecklenburg-Vorpommern",
      "area_code": "03874"
    },
    {
      "code": "LC",
      "city_district": "Landkreis Dahme-Spreewald",
      "derived_from": "LuCkau",
      "federal_state": "Brandenburg",
      "area_code": "0331"
    },
    {
      "code": "LD",
      "city_district": "Stadt Landau in der Pfalz",
      "derived_from": "LanDau",
      "federal_state": "Rheinland-Pfalz",
      "area_code": "06341"
    },
    {
      "code": "LDK",
      "city_district": "Lahn-Dill-Kreis",
      "derived_from": "Lahn-Dill-Kreis",
      "federal_state": "Hessen",
      "area_code": "0611"
    },
    {
      "code": "LDS",
      "city_district": "Landkreis Dahme-Spreewald",
      "derived_from": "Landkreis Dahme-Spreewald",
      "federal_state": "Brandenburg",
      "area_code": "0331"
    },
    {
      "code": "LEO",
      "city_district": "Landkreis Böblingen",
      "derived_from": "LEOnberg",
      "federal_state": "Baden-Württemberg",
      "area_code": "0711"
    },
    {
      "code": "LER",
      "city_district": "Landkreis Leer",
      "derived_from": "LEeR",
      "federal_state": "Niedersachsen",
      "area_code": "0511"
    },
    {
      "code": "LEV",
      "city_district": "Stadt Leverkusen",
      "derived_from": "LEVerkusen",
      "federal_state": "Nordrhein-Westfalen",
      "area_code": "0214"
    },
    {
      "code": "LF",
      "city_district": "Landkreis Altötting",
      "derived_from": "LauFen",
      "federal_state": "Bayern",
      "area_code": "08671"
    },
    {
      "code": "LG",
      "city_district": "Landkreis Lüneburg",
      "derived_from": "LüneburG",
      "federal_state": "Niedersachsen",
      "area_code": "04131"
    },
    {
      "code": "LH",
      "city_district": "Kreis Coesfeld",
      "derived_from": "LüdingHausen",
      "federal_state": "Nordrhein-Westfalen",
      "area_code": "02541"
    },
    {
      "code": "LI",
      "city_district": "Landkreis Lindau",
      "derived_from": "LIndau",
      "federal_state": "Bayern",
      "area_code": "08382"
    },
    {
      "code": "LIB",
      "city_district": "Landkreis Elbe-Elster",
      "derived_from": "LIeBenwerda",
      "federal_state": "Brandenburg",
      "area_code": "0331"
    },
    {
      "code": "LIF",
      "city_district": "Landkreis Lichtenfels",
      "derived_from": "LIchtenFels",
      "federal_state": "Bayern",
      "area_code": "089"
    },
    {
      "code": "LIP",
      "city_district": "Kreis Lippe",
      "derived_from": "LIPpe",
      "federal_state": "Nordrhein-Westfalen",
      "area_code": "05231"
    },
    {
      "code": "LK",
      "city_district": "Kreis Minden-Lübbecke",
      "derived_from": "LübbecKe",
      "federal_state": "Nordrhein-Westfalen",
      "area_code": "0571"
    },
    {
      "code": "LL",
      "city_district": "Landkreis Landsberg am Lech",
      "derived_from": "Landsberg am Lech",
      "federal_state": "Bayern",
      "area_code": "08191"
    },
    {
      "code": "LM",
      "city_district": "Landkreis Limburg-Weilburg",
      "derived_from": "LiMburg",
      "federal_state": "Hessen",
      "area_code": "06431"
    },
    {
      "code": "LN",
      "city_district": "Landkreis Dahme-Spreewald",
      "derived_from": "LübbeN",
      "federal_state": "Brandenburg",
      "area_code": "0331"
    },
    {
      "code": "LOS",
      "city_district": "Landkreis Oder-Spree",
      "derived_from": "Landkreis Oder-Spree",
      "federal_state": "Brandenburg",
      "area_code": "0331"
    },
    {
      "code": "LP",
      "city_district": "Kreis Soest",
      "derived_from": "LiPpstadt",
      "federal_state": "Nordrhein-Westfalen",
      "area_code": "0211"
    },
    {
      "code": "LR",
      "city_district": "Ortenaukreis",
      "derived_from": "LahR",
      "federal_state": "Baden-Württemberg",
      "area_code": "0711"
    },
    {
      "code": "LRO",
      "city_district": "Landkreis Rostock",
      "derived_from": "Landkreis ROstock",
      "federal_state": "Mecklenburg-Vorpommern",
      "area_code": "0381"
    },
    {
      "code": "LSA",
      "city_district": "Sachsen-Anhalt, Landesregierung, Landtag und Polizei",
      "derived_from": "Land Sachsen-Anhalt",
      "federal_state": "Sachsen-Anhalt",
      "area_code": "0391"
    },
    {
      "code": "LSN",
      "city_district": "Sachsen, Landesregierung und Landtag",
      "derived_from": "Landtag SachseN",
      "federal_state": "Sachsen",
      "area_code": "0351"
    },
    {
      "code": "LSZ",
      "city_district": "Unstrut-Hainich-Kreis",
      "derived_from": "LangenSalZa",
      "federal_state": "Thüringen",
      "area_code": "0361"
    },
    {
      "code": "LU",
      "city_district": "Stadt Ludwigshafen am Rhein",
      "derived_from": "LUdwigshafen",
      "federal_state": "Rheinland-Pfalz",
      "area_code": "0621"
    },
    {
      "code": "LUK",
      "city_district": "Landkreis Teltow-Fläming",
      "derived_from": "LUcKenwalde",
      "federal_state": "Brandenburg",
      "area_code": "0331"
    },
    {
      "code": "LUP",
      "city_district": "Landkreis Ludwigslust-Parchim",
      "derived_from": "LUdwigslust, Parchim",
      "federal_state": "Mecklenburg-Vorpommern",
      "area_code": "03874"
    },
    {
      "code": "LWL",
      "city_district": "Landkreis Ludwigslust-Parchim",
      "derived_from": "LudWigsLust",
      "federal_state": "Mecklenburg-Vorpommern",
      "area_code": "03874"
    },
    {
      "code": "M",
      "city_district": "Stadt München",
      "derived_from": "München",
      "federal_state": "Bayern",
      "lat": 48.137154,
      "lng": 11.576124,
      "area_code": "089"
    },
    {
      "code": "MA",
      "city_district": "Stadt Mannheim",
      "derived_from": "MAnnheim",
      "federal_state": "Baden-Württemberg",
      "area_code": "0621"
    },
    {
      "code": "MAB",
      "city_district": "Erzgebirgskreis",
      "derived_from": "MArienBerg",
      "federal_state": "Sachsen",
      "area_code": "0351"
    },
    {
      "code": "MAI",
      "city_district": "Landkreis Kelheim",
      "derived_from": "MAInburg",
      "federal_state": "Bayern",
      "area_code": "089"
    },
    {
      "code": "MAK",
      "city_district": "Landkreis Wunsiedel im Fichtelgebirge",
      "derived_from": "MArKtredwitz",
      "federal_state": "Bayern",
      "area_code": "09232"
    },
    {
      "code": "MAL",
      "city_district": "Landkreis Landshut",
      "derived_from": "MALlersdorf",
      "federal_state": "Bayern",
      "area_code": "0871"
    },
    {
      "code": "MB",
      "city_district": "Landkreis Miesbach",
      "derived_from": "MiesBach",
      "federal_state": "Bayern",
      "area_code": "08025"
    },
    {
      "code": "MC",
      "city_district": "Landkreis Mecklenburgische Seenplatte ohne die Stadt Neubrandenburg",
      "derived_from": "MalChin",
      "federal_state": "Mecklenburg-Vorpommern",
      "area_code": "0385"
    },
    {
      "code": "MD",
      "city_district": "Stadt Magdeburg",
      "derived_from": "MagDeburg",
      "federal_state": "Sachsen-Anhalt",
      "area_code": "0391"
    },
    {
      "code": "ME",
      "city_district": "Kreis Mettmann",
      "derived_from": "MEttmann",
      "federal_state": "Nordrhein-Westfalen",
      "area_code": "02104"
    },
    {
      "code": "MED",
      "city_district": "Kreis Dithmarschen",
      "derived_from": "MElDorf",
      "federal_state": "Schleswig-Holstein",
      "area_code": "0431"
    },
    {
      "code": "MEG",
      "city_district": "Schwalm-Eder-Kreis",
      "derived_from": "MElsunGen",
      "federal_state": "Hessen",
      "area_code": "0611"
    },
    {
      "code": "MEI",
      "city_district": "Landkreis Meißen",
      "derived_from": "MEIßen",
      "federal_state": "Sachsen",
      "area_code": "0351"
    },
    {
      "code": "MEK",
      "city_district": "Erzgebirgskreis",
      "derived_from": "Mittlerer ErzgebirgsKreis",
      "federal_state": "Sachsen",
      "area_code": "0351"
    },
    {
      "code": "MEL",
      "city_district": "Landkreis Osnabrück",
      "derived_from": "MELle",
      "federal_state": "Niedersachsen",
      "area_code": "0541"
    },
    {
      "code": "MER",
      "city_district": "Saalekreis",
      "derived_from": "MERseburg",
      "federal_state": "Sachsen-Anhalt",
      "area_code": "03461"
    },
    {
      "code": "MET",
      "city_district": "Landkreis Rhön-Grabfeld",
      "derived_from": "MEllrichstadT",
      "federal_state": "Bayern",
      "area_code": "09771"
    },
    {
      "code": "MG",
      "city_district": "Stadt Mönchengladbach",
      "derived_from": "MönchenGladbach",
      "federal_state": "Nordrhein-Westfalen",
      "area_code": "02161"
    },
    {
      "code": "MGH",
      "city_district": "Main-Tauber-Kreis",
      "derived_from": "MerGentHeim",
      "federal_state": "Baden-Württemberg",
      "area_code": "0711"
    },
    {
      "code": "MGN",
      "city_district": "Landkreis Schmalkalden-Meiningen",
      "derived_from": "MeininGeN",
      "federal_state": "Thüringen",
      "area_code": "03683"
    },
    {
      "code": "MH",
      "city_district": "Stadt Mülheim an der Ruhr",
      "derived_from": "MülHeim",
      "federal_state": "Nordrhein-Westfalen",
      "area_code": "0208"
    },
    {
      "code": "MHL",
      "city_district": "Unstrut-Hainich-Kreis",
      "derived_from": "MüHLhausen",
      "federal_state": "Thüringen",
      "area_code": "0361"
    },
    {
      "code": "MI",
      "city_district": "Kreis Minden-Lübbecke",
      "derived_from": "MInden",
      "federal_state": "Nordrhein-Westfalen",
      "area_code": "0571"
    },
    {
      "code": "MIL",
      "city_district": "Landkreis Miltenberg",
      "derived_from": "MILtenberg",
      "federal_state": "Bayern",
      "area_code": "09371"
    },
    {
      "code": "MK",
      "city_district": "Märkischer Kreis",
      "derived_from": "Märkischer Kreis",
      "federal_state": "Nordrhein-Westfalen",
      "area_code": "02351"
    },
    {
      "code": "MKK",
      "city_district": "Main-Kinzig-Kreis ohne die Stadt Hanau",
      "derived_from": "Main-Kinzig-Kreis",
      "federal_state": "Hessen",
      "area_code": "0611"
    },
    {
      "code": "ML",
      "city_district": "Landkreis Mansfeld-Südharz",
      "derived_from": "Mansfelder Land",
      "federal_state": "Sachsen-Anhalt",
      "area_code": "0391"
    },
    {
      "code": "MM",
      "city_district": "Stadt Memmingen",
      "derived_from": "MemMingen",
      "federal_state": "Bayern",
      "area_code": "08331"
    },
    {
      "code": "MN",
      "city_district": "Landkreis Unterallgäu",
      "derived_from": "MiNdelheim",
      "federal_state": "Bayern",
      "area_code": "089"
    },
    {
      "code": "MO",
      "city_district": "Kreis Wesel",
      "derived_from": "MOers",
      "federal_state": "Nordrhein-Westfalen",
      "area_code": "0281"
    },
    {
      "code": "MOD",
      "city_district": "Landkreis Ostallgäu",
      "derived_from": "MarktOberDorf",
      "federal_state": "Bayern",
      "area_code": "089"
    },
    {
      "code": "MOL",
      "city_district": "Landkreis Märkisch-Oderland",
      "derived_from": "Märkisch-OderLand",
      "federal_state": "Brandenburg",
      "area_code": "0331"
    },
    {
      "code": "MON",
      "city_district": "Städteregion Aachen",
      "derived_from": "MONschau",
      "federal_state": "Nordrhein-Westfalen",
      "area_code": "0241"
    },
    {
      "code": "MOS",
      "city_district": "Neckar-Odenwald-Kreis",
      "derived_from": "MOSbach",
      "federal_state": "Baden-Württemberg",
      "area_code": "0711"
    },
    {
      "code": "MQ",
      "city_district": "Saalekreis",
      "derived_from": "Merseburg, Querfurt",
      "federal_state": "Sachsen-Anhalt",
      "area_code": "03461"
    },
    {
      "code": "MR",
      "city_district": "Landkreis Marburg-Biedenkopf",
      "derived_from": "MaRburg",
      "federal_state": "Hessen",
      "area_code": "0611"
    },
    {
      "code": "MS",
      "city_district": "Stadt Münster",
      "derived_from": "MünSter",
      "federal_state": "Nordrhein-Westfalen",
      "area_code": "0251"
    },
    {
      "code": "MSE",
      "city_district": "Landkreis Mecklenburgische Seenplatte ohne die Stadt Neubrandenburg",
      "derived_from": "Mecklenburgische SEenplatte",
      "federal_state": "Mecklenburg-Vorpommern",
      "area_code": "0385"
    },
    {
      "code": "MSH",
      "city_district": "Landkreis Mansfeld-Südharz",
      "derived_from": "Mansfeld, SüdHarz",
      "federal_state": "Sachsen-Anhalt",
      "area_code": "0391"
    },
    {
      "code": "MSP",
      "city_district": "Landkreis Main-Spessart",
      "derived_from": "Main, SPessart",
      "federal_state": "Bayern",
      "area_code": "089"
    },
    {
      "code": "MST",
      "city_district": "Landkreis Mecklenburgische Seenplatte ohne die Stadt Neubrandenburg",
      "derived_from": "Mecklenburg-STrelitz",
      "federal_state": "Mecklenburg-Vorpommern",
      "area_code": "0385"
    },
    {
      "code": "MTK",
      "city_district": "Main-Taunus-Kreis",
      "derived_from": "Main-Taunus-Kreis",
      "federal_state": "Hessen",
      "area_code": "0611"
    },
    {
      "code": "MTL",
      "city_district": "Landkreis Leipzig",
      "derived_from": "MuldenTaL",
      "federal_state": "Sachsen",
      "area_code": "0341"
    },
    {
      "code": "MUC",
      "city_district": "Stadt München",
      "derived_from": "MUenChen",
      "federal_state": "Bayern",
      "area_code": "089"
    },
    {
      "code": "MVL",
      "city_district": "Mecklenburg-Vorpommern, Landesregierung, Landtag und Polizei",
      "derived_from": "Mecklenburg-Vorpommerscher Landtag",
      "federal_state": "Mecklenburg-Vorpommern",
      "area_code": "0385"
    },
    {
      "code": "MW",
      "city_district": "Landkreis Mittelsachsen",
      "derived_from": "MittWeida",
      "federal_state": "Sachsen",
      "area_code": "0351"
    },
    {
      "code": "MY",
      "city_district": "Landkreis Mayen-Koblenz",
      "derived_from": "MaYen",
      "federal_state": "Rheinland-Pfalz",
      "area_code": "0261"
    },
    {
      "code": "MYK",
      "city_district": "Landkreis Mayen-Koblenz",
      "derived_from": "MaYen, Koblenz",
      "federal_state": "Rheinland-Pfalz",
      "area_code": "0261"
    },
    {
      "code": "MZ",
      "city_district": "Stadt Mainz",
      "derived_from": "MainZ",
      "federal_state": "Rheinland-Pfalz",
      "area_code": "06131"
    },
    {
      "code": "MZG",
      "city_district": "Landkreis Merzig-Wadern",
      "derived_from": "MerZiG",
      "federal_state": "Saarland",
      "area_code": "0681"
    },
    {
      "code": "N",
      "city_district": "Stadt Nürnberg",
      "derived_from": "Nürnberg",
      "federal_state": "Bayern",
      "lat": 49.45203,
      "lng": 11.076751,
      "area_code": "0911"
    },
    {
      "code": "NAB",
      "city_district": "Landkreis Amberg-Sulzbach",
      "derived_from": "NABburg",
      "federal_state": "Bayern",
      "area_code": "09621"
    },
    {
      "code": "NAI",
      "city_district": "Landkreis Hof",
      "derived_from": "NAIla",
      "federal_state": "Bayern",
      "area_code": "09281"
    },
    {
      "code": "NAU",
      "city_district": "Landkreis Havelland",
      "derived_from": "NAUen",
      "federal_state": "Brandenburg",
      "area_code": "0331"
    },
    {
      "code": "NB",
      "city_district": "Stadt Neubrandenburg",
      "derived_from": "NeuBrandenburg",
      "federal_state": "Mecklenburg-Vorpommern",
      "area_code": "0395"
    },
    {
      "code": "ND",
      "city_district": "Landkreis Neuburg-Schrobenhausen",
      "derived_from": "Neuburg an der Donau",
      "federal_state": "Bayern",
      "area_code": "08431"
    },
    {
      "code": "NDH",
      "city_district": "Landkreis Nordhausen",
      "derived_from": "NorDHausen",
      "federal_state": "Thüringen",
      "area_code": "03631"
    },
    {
      "code": "NE",
      "city_district": "Rhein-Kreis Neuss",
      "derived_from": "NEuss",
      "federal_state": "Nordrhein-Westfalen",
      "area_code": "02131"
    },
    {
      "code": "NEA",
      "city_district": "Landkreis Neustadt an der Aisch-Bad Windsheim",
      "derived_from": "NEustadt an der Aisch",
      "federal_state": "Bayern",
      "area_code": "06321"
    },
    {
      "code": "NEB",
      "city_district": "Burgenlandkreis",
      "derived_from": "NEBra",
      "federal_state": "Sachsen-Anhalt",
      "area_code": "0391"
    },
    {
      "code": "NEC",
      "city_district": "Stadt Coburg und Landkreis Coburg",
      "derived_from": "NEustadt bei Coburg",
      "federal_state": "Bayern",
      "area_code": "09561"
    },
    {
      "code": "NEN",
      "city_district": "Landkreis Schwandorf",
      "derived_from": "NEuNburg",
      "federal_state": "Bayern",
      "area_code": "089"
    },
    {
      "code": "NES",
      "city_district": "Landkreis Rhön-Grabfeld",
      "derived_from": "NEustadt an der Saale",
      "federal_state": "Bayern",
      "area_code": "09771"
    },
    {
      "code": "NEU",
      "city_district": "Landkreis Breisgau-Hochschwarzwald",
      "derived_from": "NEUstadt",
      "federal_state": "Baden-Württemberg",
      "area_code": "0711"
    },
    {
      "code": "NEW",
      "city_district": "Landkreis Neustadt an der Waldnaab",
      "derived_from": "NEustadt an der Waldnaab",
      "federal_state": "Bayern",
      "area_code": "06321"
    },
    {
      "code": "NF",
      "city_district": "Kreis Nordfriesland",
      "derived_from": "NordFriesland",
      "federal_state": "Schleswig-Holstein",
      "area_code": "0431"
    },
    {
      "code": "NH",
      "city_district": "Landkreis Sonneberg",
      "derived_from": "NeuHaus",
      "federal_state": "Thüringen",
      "area_code": "0361"
    },
    {
      "code": "NI",
      "city_district": "Landkreis Nienburg/Weser",
      "derived_from": "NIenburg",
      "federal_state": "Niedersachsen",
      "area_code": "0511"
    },
    {
      "code": "NK",
      "city_district": "Landkreis Neunkirchen",
      "derived_from": "NeunKirchen",
      "federal_state": "Saarland",
      "area_code": "06821"
    },
    {
      "code": "NL",
      "city_district": "Niedersachsen, Landesregierung und Landtag",
      "derived_from": "Niedersächsischer Landtag",
      "federal_state": "Niedersachsen",
      "area_code": "0511"
    },
    {
      "code": "NM",
      "city_district": "Landkreis Neumarkt in der Oberpfalz",
      "derived_from": "NeuMarkt",
      "federal_state": "Bayern",
      "area_code": "09181"
    },
    {
      "code": "NMB",
      "city_district": "Burgenlandkreis",
      "derived_from": "NauMBurg",
      "federal_state": "Sachsen-Anhalt",
      "area_code": "0391"
    },
    {
      "code": "NMS",
      "city_district": "Stadt Neumünster",
      "derived_from": "NeuMünSter",
      "federal_state": "Schleswig-Holstein",
      "area_code": "04321"
    },
    {
      "code": "NOH",
      "city_district": "Landkreis Grafschaft Bentheim",
      "derived_from": "NOrdHorn",
      "federal_state": "Niedersachsen",
      "area_code": "0511"
    },
    {
      "code": "NOL",
      "city_district": "Landkreis Görlitz",
      "derived_from": "Niederschlesische OberLausitz",
      "federal_state": "Sachsen",
      "area_code": "03581"
    },
    {
      "code": "NOM",
      "city_district": "Landkreis Northeim",
      "derived_from": "NOrtheiM",
      "federal_state": "Niedersachsen",
      "area_code": "05551"
    },
    {
      "code": "NOR",
      "city_district": "Landkreis Aurich",
      "derived_from": "NORden",
      "federal_state": "Niedersachsen",
      "area_code": "04941"
    },
    {
      "code": "NP",
      "city_district": "Landkreis Ostprignitz-Ruppin",
      "derived_from": "NeurupPin",
      "federal_state": "Brandenburg",
      "area_code": "0331"
    },
    {
      "code": "NR",
      "city_district": "Landkreis Neuwied",
      "derived_from": "Neuwied am Rhein",
      "federal_state": "Rheinland-Pfalz",
      "area_code": "02631"
    },
    {
      "code": "NRW",
      "city_district": "Nordrhein-Westfalen, Landesregierung, Landtag und Polizei",
      "derived_from": "NordRhein-Westfalen",
      "federal_state": "Nordrhein-Westfalen",
      "area_code": "0211"
    },
    {
      "code": "NT",
      "city_district": "Landkreis Esslingen",
      "derived_from": "NürTingen",
      "federal_state": "Baden-Württemberg",
      "area_code": "0711"
    },
    {
      "code": "NU",
      "city_district": "Landkreis Neu-Ulm",
      "derived_from": "Neu-Ulm",
      "federal_state": "Bayern",
      "area_code": "0731"
    },
    {
      "code": "NVP",
      "city_district": "Landkreis Vorpommern-Rügen ohne die Stadt Stralsund",
      "derived_from": "NordVorPommern",
      "federal_state": "Mecklenburg-Vorpommern",
      "area_code": "0385"
    },
    {
      "code": "NW",
      "city_district": "Stadt Neustadt an der Weinstraße",
      "derived_from": "Neustadt an der Weinstraße",
      "federal_state": "Rheinland-Pfalz",
      "area_code": "06321"
    },
    {
      "code": "NWM",
      "city_district": "Landkreis Nordwestmecklenburg ohne die Stadt Wismar",
      "derived_from": "NordWestMecklenburg",
      "federal_state": "Mecklenburg-Vorpommern",
      "area_code": "0385"
    },
    {
      "code": "NY",
      "city_district": "Landkreis Görlitz",
      "derived_from": "NieskY",
      "federal_state": "Sachsen",
      "area_code": "03581"
    },
    {
      "code": "NZ",
      "city_district": "Landkreis Mecklenburgische Seenplatte ohne die Stadt Neubrandenburg",
      "derived_from": "NeustrelitZ",
      "federal_state": "Mecklenburg-Vorpommern",
      "area_code": "0385"
    },
    {
      "code": "OA",
      "city_district": "Landkreis Oberallgäu",
      "derived_from": "OberAllgäu",
      "federal_state": "Bayern",
      "area_code": "08321"
    },
    {
      "code": "OAL",
      "city_district": "Landkreis Ostallgäu",
      "derived_from": "OstALlgäu",
      "federal_state": "Bayern",
      "area_code": "089"
    },
    {
      "code": "OB",
      "city_district": "Stadt Oberhausen",
      "derived_from": "OBerhausen",
      "federal_state": "Nordrhein-Westfalen",
      "area_code": "0208"
    },
    {
      "code": "OBB",
      "city_district": "Landkreis Miltenberg",
      "derived_from": "OBernBurg",
      "federal_state": "Bayern",
      "area_code": "09371"
    },
    {
      "code": "OBG",
      "city_district": "Landkreis Stendal",
      "derived_from": "OsterBurG",
      "federal_state": "Sachsen-Anhalt",
      "area_code": "03931"
    },
    {
      "code": "OC",
      "city_district": "Landkreis Börde",
      "derived_from": "OsChersleben",
      "federal_state": "Sachsen-Anhalt",
      "area_code": "0391"
    },
    {
      "code": "OCH",
      "city_district": "Landkreis Würzburg",
      "derived_from": "OCHsenfurt",
      "federal_state": "Bayern",
      "area_code": "0931"
    },
    {
      "code": "OD",
      "city_district": "Kreis Stormarn",
      "derived_from": "OlDesloe",
      "federal_state": "Schleswig-Holstein",
      "area_code": "0431"
    },
    {
      "code": "OE",
      "city_district": "Kreis Olpe",
      "derived_from": "OlpE",
      "federal_state": "Nordrhein-Westfalen",
      "area_code": "0211"
    },
    {
      "code": "OF",
      "city_district": "Landkreis Offenbach und Stadt Offenbach am Main",
      "derived_from": "OFfenbach",
      "federal_state": "Hessen",
      "area_code": "069"
    },
    {
      "code": "OG",
      "city_district": "Ortenaukreis",
      "derived_from": "OffenburG",
      "federal_state": "Baden-Württemberg",
      "area_code": "0711"
    },
    {
      "code": "OH",
      "city_district": "Kreis Ostholstein",
      "derived_from": "OstHolstein",
      "federal_state": "Schleswig-Holstein",
      "area_code": "0431"
    },
    {
      "code": "OHA",
      "city_district": "Landkreis Göttingen ohne die Stadt Göttingen",
      "derived_from": "Osterode am HArz",
      "federal_state": "Niedersachsen",
      "area_code": "0551"
    },
    {
      "code": "OHV",
      "city_district": "Landkreis Oberhavel",
      "derived_from": "OberHaVel",
      "federal_state": "Brandenburg",
      "area_code": "03301"
    },
    {
      "code": "OHZ",
      "city_district": "Landkreis Osterholz",
      "derived_from": "OsterHolZ",
      "federal_state": "Niedersachsen",
      "area_code": "0511"
    },
    {
      "code": "OK",
      "city_district": "Landkreis Börde",
      "derived_from": "OhreKreis",
      "federal_state": "Sachsen-Anhalt",
      "area_code": "0391"
    },
    {
      "code": "OL",
      "city_district": "Stadt Oldenburg",
      "derived_from": "OLdenburg",
      "federal_state": "Niedersachsen",
      "area_code": "0441"
    },
    {
      "code": "OP",
      "city_district": "Stadt Leverkusen",
      "derived_from": "OPladen",
      "federal_state": "Nordrhein-Westfalen",
      "area_code": "0214"
    },
    {
      "code": "OPR",
      "city_district": "Landkreis Ostprignitz-Ruppin",
      "derived_from": "OstPrignitz, Ruppin",
      "federal_state": "Brandenburg",
      "area_code": "0331"
    },
    {
      "code": "OS",
      "city_district": "Stadt Osnabrück",
      "derived_from": "OSnabrück",
      "federal_state": "Niedersachsen",
      "area_code": "0541"
    },
    {
      "code": "OSL",
      "city_district": "Landkreis Oberspreewald-Lausitz",
      "derived_from": "OberSpreewald, Lausitz",
      "federal_state": "Brandenburg",
      "area_code": "0331"
    },
    {
      "code": "OTW",
      "city_district": "Landkreis Neunkirchen",
      "derived_from": "OTtWeiler",
      "federal_state": "Saarland",
      "area_code": "06821"
    },
    {
      "code": "OVI",
      "city_district": "Landkreis Schwandorf",
      "derived_from": "OberVIechtach",
      "federal_state": "Bayern",
      "area_code": "089"
    },
    {
      "code": "OVL",
      "city_district": "Vogtlandkreis",
      "derived_from": "OberVogtLand",
      "federal_state": "Sachsen",
      "area_code": "0351"
    },
    {
      "code": "OZ",
      "city_district": "Landkreis Nordsachsen",
      "derived_from": "OschatZ",
      "federal_state": "Sachsen",
      "area_code": "0351"
    },
    {
      "code": "P",
      "city_district": "Stadt Potsdam",
      "derived_from": "Potsdam",
      "federal_state": "Brandenburg",
      "area_code": "0331"
    },
    {
      "code": "PA",
      "city_district": "Stadt Passau",
      "derived_from": "PAssau",
      "federal_state": "Bayern",
      "area_code": "0851"
    },
    {
      "code": "PAF",
      "city_district": "Landkreis Pfaffenhofen an der Ilm",
      "derived_from": "PfAFfenhofen",
      "federal_state": "Bayern",
      "area_code": "089"
    },
    {
      "code": "PAN",
      "city_district": "Landkreis Rottal-Inn",
      "derived_from": "PfArrkircheN",
      "federal_state": "Bayern",
      "area_code": "089"
    },
    {
      "code": "PAR",
      "city_district": "Landkreis Kelheim",
      "derived_from": "PARsberg",
      "federal_state": "Bayern",
      "area_code": "089"
    },
    {
      "code": "PB",
      "city_district": "Kreis Paderborn",
      "derived_from": "PaderBorn",
      "federal_state": "Nordrhein-Westfalen",
      "area_code": "05251"
    },
    {
      "code": "PCH",
      "city_district": "Landkreis Ludwigslust-Parchim",
      "derived_from": "ParCHim",
      "federal_state": "Mecklenburg-Vorpommern",
      "area_code": "03874"
    },
    {
      "code": "PE",
      "city_district": "Landkreis Peine",
      "derived_from": "PEine",
      "federal_state": "Niedersachsen",
      "area_code": "0511"
    },
    {
      "code": "PEG",
      "city_district": "Landkreis Bayreuth",
      "derived_from": "PEGnitz",
      "federal_state": "Bayern",
      "area_code": "0921"
    },
    {
      "code": "PF",
      "city_district": "Stadt Pforzheim",
      "derived_from": "PForzheim",
      "federal_state": "Baden-Württemberg",
      "area_code": "07231"
    },
    {
      "code": "PI",
      "city_district": "Kreis Pinneberg",
      "derived_from": "PInneberg",
      "federal_state": "Schleswig-Holstein",
      "area_code": "04101"
    },
    {
      "code": "PIR",
      "city_district": "Landkreis Sächsische Schweiz-Osterzgebirge",
      "derived_from": "PIRna",
      "federal_state": "Sachsen",
      "area_code": "0351"
    },
    {
      "code": "PL",
      "city_district": "Vogtlandkreis",
      "derived_from": "PLauen",
      "federal_state": "Sachsen",
      "area_code": "0351"
    },
    {
      "code": "PM",
      "city_district": "Landkreis Potsdam-Mittelmark",
      "derived_from": "Potsdam, Mittelmark",
      "federal_state": "Brandenburg",
      "area_code": "0331"
    },
    {
      "code": "PN",
      "city_district": "Saale-Orla-Kreis",
      "derived_from": "PößNeck",
      "federal_state": "Thüringen",
      "area_code": "0361"
    },
    {
      "code": "PR",
      "city_district": "Landkreis Prignitz",
      "derived_from": "PRignitz",
      "federal_state": "Brandenburg",
      "area_code": "0331"
    },
    {
      "code": "PS",
      "city_district": "Stadt Pirmasens",
      "derived_from": "PirmaSens",
      "federal_state": "Rheinland-Pfalz",
      "area_code": "06131"
    },
    {
      "code": "PW",
      "city_district": "Landkreis Vorpommern-Greifswald ohne die Stadt Greifswald",
      "derived_from": "PaseWalk",
      "federal_state": "Mecklenburg-Vorpommern",
      "area_code": "0385"
    },
    {
      "code": "PZ",
      "city_district": "Landkreis Uckermark",
      "derived_from": "PrenZlau",
      "federal_state": "Brandenburg",
      "area_code": "0331"
    },
    {
      "code": "QFT",
      "city_district": "Saalekreis",
      "derived_from": "QuerFurT",
      "federal_state": "Sachsen-Anhalt",
      "area_code": "03461"
    },
    {
      "code": "QLB",
      "city_district": "Landkreis Harz",
      "derived_from": "QuedLinBurg",
      "federal_state": "Sachsen-Anhalt",
      "area_code": "0391"
    },
    {
      "code": "R",
      "city_district": "Stadt Regensburg",
      "derived_from": "Regensburg",
      "federal_state": "Bayern",
      "lat": 49.019493,
      "lng": 12.096933,
      "area_code": "0941"
    },
    {
      "code": "RA",
      "city_district": "Landkreis Rastatt",
      "derived_from": "RAstatt",
      "federal_state": "Baden-Württemberg",
      "area_code": "0711"
    },
    {
      "code": "RC",
      "city_district": "Vogtlandkreis",
      "derived_from": "ReiChenbach",
      "federal_state": "Sachsen",
      "area_code": "0351"
    },
    {
      "code": "RD",
      "city_district": "Kreis Rendsburg-Eckernförde",
      "derived_from": "RenDsburg",
      "federal_state": "Schleswig-Holstein",
      "area_code": "04331"
    },
    {
      "code": "RDG",
      "city_district": "Landkreis Vorpommern-Rügen ohne die Stadt Stralsund",
      "derived_from": "Ribnitz-DamGarten",
      "federal_state": "Mecklenburg-Vorpommern",
      "area_code": "0385"
    },
    {
      "code": "RE",
      "city_district": "Kreis Recklinghausen",
      "derived_from": "REcklinghausen",
      "federal_state": "Nordrhein-Westfalen",
      "area_code": "02361"
    },
    {
      "code": "REG",
      "city_district": "Landkreis Regen",
      "derived_from": "REGen",
      "federal_state": "Bayern",
      "area_code": "0941"
    },
    {
      "code": "REH",
      "city_district": "Landkreis Hof",
      "derived_from": "REHau",
      "federal_state": "Bayern",
      "area_code": "09281"
    },
    {
      "code": "REI",
      "city_district": "Landkreis Berchtesgadener Land",
      "derived_from": "REIchenhall",
      "federal_state": "Bayern",
      "area_code": "089"
    },
    {
      "code": "RG",
      "city_district": "Landkreis Meißen",
      "derived_from": "Riesa, Großenhain",
      "federal_state": "Sachsen",
      "area_code": "03525"
    },
    {
      "code": "RH",
      "city_district": "Landkreis Roth",
      "derived_from": "RotH",
      "federal_state": "Bayern",
      "area_code": "089"
    },
    {
      "code": "RI",
      "city_district": "Landkreis Schaumburg",
      "derived_from": "RInteln",
      "federal_state": "Niedersachsen",
      "area_code": "05721"
    },
    {
      "code": "RID",
      "city_district": "Landkreis Kelheim",
      "derived_from": "RIeDenburg",
      "federal_state": "Bayern",
      "area_code": "089"
    },
    {
      "code": "RIE",
      "city_district": "Landkreis Meißen",
      "derived_from": "RIEsa",
      "federal_state": "Sachsen",
      "area_code": "0351"
    },
    {
      "code": "RL",
      "city_district": "Landkreis Mittelsachsen",
      "derived_from": "RochLitz",
      "federal_state": "Sachsen",
      "area_code": "0351"
    },
    {
      "code": "RM",
      "city_district": "Landkreis Mecklenburgische Seenplatte ohne die Stadt Neubrandenburg",
      "derived_from": "Röbel/Müritz",
      "federal_state": "Mecklenburg-Vorpommern",
      "area_code": "0385"
    },
    {
      "code": "RN",
      "city_district": "Landkreis Havelland",
      "derived_from": "RatheNow",
      "federal_state": "Brandenburg",
      "area_code": "0331"
    },
    {
      "code": "RO",
      "city_district": "Stadt Rosenheim",
      "derived_from": "ROsenheim",
      "federal_state": "Bayern",
      "area_code": "08031"
    },
    {
      "code": "ROD",
      "city_district": "Landkreis Cham",
      "derived_from": "RODing",
      "federal_state": "Bayern",
      "area_code": "089"
    },
    {
      "code": "ROF",
      "city_district": "Landkreis Hersfeld-Rotenburg",
      "derived_from": "ROtenburg an der Fulda",
      "federal_state": "Hessen",
      "area_code": "0611"
    },
    {
      "code": "ROK",
      "city_district": "Donnersbergkreis",
      "derived_from": "ROcKenhausen",
      "federal_state": "Rheinland-Pfalz",
      "area_code": "06131"
    },
    {
      "code": "ROL",
      "city_district": "Landkreis Kelheim",
      "derived_from": "ROttenburg an der Laaber",
      "federal_state": "Bayern",
      "area_code": "089"
    },
    {
      "code": "ROS",
      "city_district": "Landkreis Rostock",
      "derived_from": "ROStock",
      "federal_state": "Mecklenburg-Vorpommern",
      "area_code": "0381"
    },
    {
      "code": "ROT",
      "city_district": "Landkreis Ansbach",
      "derived_from": "ROthenburg ob der Tauber",
      "federal_state": "Bayern",
      "area_code": "0981"
    },
    {
      "code": "ROW",
      "city_district": "Landkreis Rotenburg",
      "derived_from": "ROtenburg",
      "federal_state": "Niedersachsen",
      "area_code": "04261"
    },
    {
      "code": "RP",
      "city_district": "Rhein-Pfalz-Kreis",
      "derived_from": "Rhein-Pfalz",
      "federal_state": "Rheinland-Pfalz",
      "area_code": "06131"
    },
    {
      "code": "RPL",
      "city_district": "Rheinland-Pfalz, Landesregierung, Landtag und Polizei",
      "derived_from": "Rheinland-Pfälzischer Landtag",
      "federal_state": "Rheinland-Pfalz",
      "area_code": "06131"
    },
    {
      "code": "RS",
      "city_district": "Stadt Remscheid",
      "derived_from": "RemScheid",
      "federal_state": "Nordrhein-Westfalen",
      "area_code": "02191"
    },
    {
      "code": "RSL",
      "city_district": "Stadt Dessau-Roßlau",
      "derived_from": "RosSLau",
      "federal_state": "Sachsen-Anhalt",
      "area_code": "0391"
    },
    {
      "code": "RT",
      "city_district": "Landkreis Reutlingen",
      "derived_from": "ReuTlingen",
      "federal_state": "Baden-Württemberg",
      "area_code": "07121"
    },
    {
      "code": "RU",
      "city_district": "Landkreis Saalfeld-Rudolstadt",
      "derived_from": "RUdolstadt",
      "federal_state": "Thüringen",
      "area_code": "03671"
    },
    {
      "code": "RV",
      "city_district": "Landkreis Ravensburg",
      "derived_from": "RaVensburg",
      "federal_state": "Baden-Württemberg",
      "area_code": "0751"
    },
    {
      "code": "RW",
      "city_district": "Landkreis Rottweil",
      "derived_from": "RottWeil",
      "federal_state": "Baden-Württemberg",
      "area_code": "0741"
    },
    {
      "code": "RZ",
      "city_district": "Kreis Herzogtum Lauenburg",
      "derived_from": "RatZeburg",
      "federal_state": "Schleswig-Holstein",
      "area_code": "0431"
    },
    {
      "code": "S",
      "city_district": "Stadt Stuttgart",
      "derived_from": "Stuttgart",
      "federal_state": "Baden-Württemberg",
      "lat": 48.775846,
      "lng": 9.182932,
      "area_code": "0711"
    },
    {
      "code": "SAB",
      "city_district": "Landkreis Trier-Saarburg",
      "derived_from": "SAarBurg",
      "federal_state": "Rheinland-Pfalz",
      "area_code": "0651"
    },
    {
      "code": "SAD",
      "city_district": "Landkreis Schwandorf",
      "derived_from": "SchwAnDorf",
      "federal_state": "Bayern",
      "area_code": "089"
    },
    {
      "code": "SAL",
      "city_district": "Saarland, Landesregierung, Landtag und Polizei",
      "derived_from": "SAarländischer Landtag",
      "federal_state": "Saarland",
      "area_code": "0681"
    },
    {
      "code": "SAN",
      "city_district": "Landkreis Hof",
      "derived_from": "StAdtsteiNach",
      "federal_state": "Bayern",
      "area_code": "09281"
    },
    {
      "code": "SAW",
      "city_district": "Altmarkkreis Salzwedel",
      "derived_from": "SAlzWedel",
      "federal_state": "Sachsen-Anhalt",
      "area_code": "0391"
    },
    {
      "code": "SB",
      "city_district": "Regionalverband Saarbrücken ohne die Stadt Völklingen",
      "derived_from": "SaarBrücken",
      "federal_state": "Saarland",
      "area_code": "0681"
    },
    {
      "code": "SBG",
      "city_district": "Landkreis Vorpommern-Greifswald ohne die Stadt Greifswald",
      "derived_from": "StrasBurG",
      "federal_state": "Mecklenburg-Vorpommern",
      "area_code": "0385"
    },
    {
      "code": "SBK",
      "city_district": "Salzlandkreis",
      "derived_from": "SchöneBecK",
      "federal_state": "Sachsen-Anhalt",
      "area_code": "0391"
    },
    {
      "code": "SC",
      "city_district": "Stadt Schwabach",
      "derived_from": "SChwabach",
      "federal_state": "Bayern",
      "area_code": "089"
    },
    {
      "code": "SCZ",
      "city_district": "Saale-Orla-Kreis",
      "derived_from": "SChleiZ",
      "federal_state": "Thüringen",
      "area_code": "0361"
    },
    {
      "code": "SDH",
      "city_district": "Kyffhäuserkreis",
      "derived_from": "SonDersHausen",
      "federal_state": "Thüringen",
      "area_code": "0361"
    },
    {
      "code": "SDL",
      "city_district": "Landkreis Stendal",
      "derived_from": "StenDaL",
      "federal_state": "Sachsen-Anhalt",
      "area_code": "03931"
    },
    {
      "code": "SDT",
      "city_district": "Landkreis Uckermark",
      "derived_from": "SchweDT",
      "federal_state": "Brandenburg",
      "area_code": "0331"
    },
    {
      "code": "SE",
      "city_district": "Kreis Segeberg",
      "derived_from": "SEgeberg",
      "federal_state": "Schleswig-Holstein",
      "area_code": "0431"
    },
    {
      "code": "SEB",
      "city_district": "Landkreis Sächsische Schweiz-Osterzgebirge",
      "derived_from": "SEBnitz",
      "federal_state": "Sachsen",
      "area_code": "0351"
    },
    {
      "code": "SEE",
      "city_district": "Landkreis Märkisch-Oderland",
      "derived_from": "SEElow",
      "federal_state": "Brandenburg",
      "area_code": "0331"
    },
    {
      "code": "SEF",
      "city_district": "Landkreis Neustadt an der Aisch-Bad Windsheim",
      "derived_from": "SchEinFeld",
      "federal_state": "Bayern",
      "area_code": "06321"
    },
    {
      "code": "SEL",
      "city_district": "Landkreis Wunsiedel im Fichtelgebirge",
      "derived_from": "SELb",
      "federal_state": "Bayern",
      "area_code": "09232"
    },
    {
      "code": "SFB",
      "city_district": "Landkreis Oberspreewald-Lausitz",
      "derived_from": "SenFtenBerg",
      "federal_state": "Brandenburg",
      "area_code": "0331"
    },
    {
      "code": "SFT",
      "city_district": "Salzlandkreis",
      "derived_from": "StaßFurT",
      "federal_state": "Sachsen-Anhalt",
      "area_code": "0391"
    },
    {
      "code": "SG",
      "city_district": "Stadt Solingen",
      "derived_from": "SolinGen",
      "federal_state": "Nordrhein-Westfalen",
      "area_code": "0212"
    },
    {
      "code": "SGH",
      "city_district": "Landkreis Mansfeld-Südharz",
      "derived_from": "SanGerHausen",
      "federal_state": "Sachsen-Anhalt",
      "area_code": "0391"
    },
    {
      "code": "SH",
      "city_district": "Schleswig-Holstein, Landesregierung, Landtag und Polizei",
      "derived_from": "Schleswig-Holstein",
      "federal_state": "Schleswig-Holstein",
      "area_code": "04621"
    },
    {
      "code": "SHA",
      "city_district": "Landkreis Schwäbisch Hall",
      "derived_from": "Schwäbisch HAll",
      "federal_state": "Baden-Württemberg",
      "area_code": "0791"
    },
    {
      "code": "SHG",
      "city_district": "Landkreis Schaumburg",
      "derived_from": "StadtHaGen",
      "federal_state": "Niedersachsen",
      "area_code": "05721"
    },
    {
      "code": "SHK",
      "city_district": "Saale-Holzland-Kreis",
      "derived_from": "Saale-Holzland-Kreis",
      "federal_state": "Thüringen",
      "area_code": "0361"
    },
    {
      "code": "SHL",
      "city_district": "Stadt Suhl",
      "derived_from": "SuHL",
      "federal_state": "Thüringen",
      "area_code": "03681"
    },
    {
      "code": "SI",
      "city_district": "Kreis Siegen-Wittgenstein",
      "derived_from": "SIegen",
      "federal_state": "Nordrhein-Westfalen",
      "area_code": "0271"
    },
    {
      "code": "SIG",
      "city_district": "Landkreis Sigmaringen",
      "derived_from": "SIGmaringen",
      "federal_state": "Baden-Württemberg",
      "area_code": "0711"
    },
    {
      "code": "SIM",
      "city_district": "Rhein-Hunsrück-Kreis",
      "derived_from": "SIMmern",
      "federal_state": "Rheinland-Pfalz",
      "area_code": "06131"
    },
    {
      "code": "SK",
      "city_district": "Saalekreis",
      "derived_from": "SaaleKreis",
      "federal_state": "Sachsen-Anhalt",
      "area_code": "03461"
    },
    {
      "code": "SL",
      "city_district": "Kreis Schleswig-Flensburg",
      "derived_from": "SchLeswig",
      "federal_state": "Schleswig-Holstein",
      "area_code": "04621"
    },
    {
      "code": "SLE",
      "city_district": "Kreis Düren",
      "derived_from": "SchLEiden",
      "federal_state": "Nordrhein-Westfalen",
      "area_code": "02421"
    },
    {
      "code": "SLF",
      "city_district": "Landkreis Saalfeld-Rudolstadt",
      "derived_from": "SaaLFeld",
      "federal_state": "Thüringen",
      "area_code": "03671"
    },
    {
      "code": "SLG",
      "city_district": "Landkreis Ravensburg",
      "derived_from": "SauLGau",
      "federal_state": "Baden-Württemberg",
      "area_code": "0751"
    },
    {
      "code": "SLK",
      "city_district": "Salzlandkreis",
      "derived_from": "SalzLandKreis",
      "federal_state": "Sachsen-Anhalt",
      "area_code": "0391"
    },
    {
      "code": "SLN",
      "city_district": "Landkreis Altenburger Land",
      "derived_from": "SchmölLN",
      "federal_state": "Thüringen",
      "area_code": "0361"
    },
    {
      "code": "SLS",
      "city_district": "Landkreis Saarlouis",
      "derived_from": "SaarLouiS",
      "federal_state": "Saarland",
      "area_code": "0681"
    },
    {
      "code": "SLZ",
      "city_district": "Wartburgkreis",
      "derived_from": "SaLZungen",
      "federal_state": "Thüringen",
      "area_code": "0361"
    },
    {
      "code": "SM",
      "city_district": "Landkreis Schmalkalden-Meiningen",
      "derived_from": "SchMalkalden",
      "federal_state": "Thüringen",
      "area_code": "03683"
    },
    {
      "code": "SN",
      "city_district": "Stadt Schwerin",
      "derived_from": "SchweriN",
      "federal_state": "Mecklenburg-Vorpommern",
      "area_code": "0385"
    },
    {
      "code": "SO",
      "city_district": "Kreis Soest",
      "derived_from": "SOest",
      "federal_state": "Nordrhein-Westfalen",
      "area_code": "0211"
    },
    {
      "code": "SOB",
      "city_district": "Landkreis Neuburg-Schrobenhausen",
      "derived_from": "SchrOBenhausen",
      "federal_state": "Bayern",
      "area_code": "08431"
    },
    {
      "code": "SOG",
      "city_district": "Landkreis Weilheim-Schongau",
      "derived_from": "SchOnGau",
      "federal_state": "Bayern",
      "area_code": "0881"
    },
    {
      "code": "SOK",
      "city_district": "Saale-Orla-Kreis",
      "derived_from": "Saale-Orla-Kreis",
      "federal_state": "Thüringen",
      "area_code": "0361"
    },
    {
      "code": "SON",
      "city_district": "Landkreis Sonneberg",
      "derived_from": "SONneberg",
      "federal_state": "Thüringen",
      "area_code": "0361"
    },
    {
      "code": "SP",
      "city_district": "Stadt Speyer",
      "derived_from": "SPeyer",
      "federal_state": "Rheinland-Pfalz",
      "area_code": "06232"
    },
    {
      "code": "SPB",
      "city_district": "Landkreis Spree-Neiße",
      "derived_from": "SPremBerg",
      "federal_state": "Brandenburg",
      "area_code": "0331"
    },
    {
      "code": "SPN",
      "city_district": "Landkreis Spree-Neiße",
      "derived_from": "SPree, Neiße",
      "federal_state": "Brandenburg",
      "area_code": "0331"
    },
    {
      "code": "SR",
      "city_district": "Landkreis Straubing-Bogen",
      "derived_from": "StRaubing",
      "federal_state": "Bayern",
      "area_code": "089"
    },
    {
      "code": "SRB",
      "city_district": "Landkreis Märkisch-Oderland",
      "derived_from": "StRausBerg",
      "federal_state": "Brandenburg",
      "area_code": "0331"
    },
    {
      "code": "SRO",
      "city_district": "Saale-Holzland-Kreis",
      "derived_from": "StadtROda",
      "federal_state": "Thüringen",
      "area_code": "0361"
    },
    {
      "code": "ST",
      "city_district": "Kreis Steinfurt",
      "derived_from": "STeinfurt",
      "federal_state": "Nordrhein-Westfalen",
      "area_code": "0211"
    },
    {
      "code": "STA",
      "city_district": "Landkreis Starnberg",
      "derived_from": "STArnberg",
      "federal_state": "Bayern",
      "area_code": "08151"
    },
    {
      "code": "STB",
      "city_district": "Landkreis Ludwigslust-Parchim",
      "derived_from": "STernBerg",
      "federal_state": "Mecklenburg-Vorpommern",
      "area_code": "03874"
    },
    {
      "code": "STD",
      "city_district": "Landkreis Stade",
      "derived_from": "STaDe",
      "federal_state": "Niedersachsen",
      "area_code": "04141"
    },
    {
      "code": "STE",
      "city_district": "Landkreis Lichtenfels",
      "derived_from": "STaffelstEin",
      "federal_state": "Bayern",
      "area_code": "089"
    },
    {
      "code": "STL",
      "city_district": "Erzgebirgskreis",
      "derived_from": "STolLberg",
      "federal_state": "Sachsen",
      "area_code": "0351"
    },
    {
      "code": "STO",
      "city_district": "Landkreis Konstanz",
      "derived_from": "STOckach",
      "federal_state": "Baden-Württemberg",
      "area_code": "07531"
    },
    {
      "code": "SU",
      "city_district": "Rhein-Sieg-Kreis",
      "derived_from": "SiegbUrg",
      "federal_state": "Nordrhein-Westfalen",
      "area_code": "0211"
    },
    {
      "code": "SUL",
      "city_district": "Landkreis Amberg-Sulzbach",
      "derived_from": "SULzbach-Rosenberg",
      "federal_state": "Bayern",
      "area_code": "09621"
    },
    {
      "code": "SW",
      "city_district": "Stadt Schweinfurt",
      "derived_from": "SchWeinfurt",
      "federal_state": "Bayern",
      "area_code": "09721"
    },
    {
      "code": "SWA",
      "city_district": "Rheingau-Taunus-Kreis",
      "derived_from": "SchWAlbach",
      "federal_state": "Hessen",
      "area_code": "0611"
    },
    {
      "code": "SY",
      "city_district": "Landkreis Diepholz",
      "derived_from": "SYke",
      "federal_state": "Niedersachsen",
      "area_code": "05441"
    },
    {
      "code": "SZ",
      "city_district": "Stadt Salzgitter",
      "derived_from": "SalZgitter",
      "federal_state": "Niedersachsen",
      "area_code": "05341"
    },
    {
      "code": "SZB",
      "city_district": "Erzgebirgskreis",
      "derived_from": "SchwarZenBerg",
      "federal_state": "Sachsen",
      "area_code": "0351"
    },
    {
      "code": "TBB",
      "city_district": "Main-Tauber-Kreis",
      "derived_from": "TauBerBischofsheim",
      "federal_state": "Baden-Württemberg",
      "area_code": "0711"
    },
    {
      "code": "TDO",
      "city_district": "Landkreis Nordsachsen",
      "derived_from": "Torgau, Delitzsch, Oschatz",
      "federal_state": "Sachsen",
      "area_code": "0351"
    },
    {
      "code": "TE",
      "city_district": "Kreis Steinfurt",
      "derived_from": "TEcklenburg",
      "federal_state": "Nordrhein-Westfalen",
      "area_code": "0211"
    },
    {
      "code": "TET",
      "city_district": "Landkreis Rostock",
      "derived_from": "TETerow",
      "federal_state": "Mecklenburg-Vorpommern",
      "area_code": "0381"
    },
    {
      "code": "TF",
      "city_district": "Landkreis Teltow-Fläming",
      "derived_from": "Teltow, Fläming",
      "federal_state": "Brandenburg",
      "area_code": "0331"
    },
    {
      "code": "TG",
      "city_district": "Landkreis Nordsachsen",
      "derived_from": "TorGau",
      "federal_state": "Sachsen",
      "area_code": "0351"
    },
    {
      "code": "THL",
      "city_district": "Thüringen, Landesregierung und Landtag",
      "derived_from": "THüringer Landtag",
      "federal_state": "Thüringen",
      "area_code": "0361"
    },
    {
      "code": "THW",
      "city_district": "Bundesanstalt Technisches Hilfswerk",
      "derived_from": "Technisches HilfsWerk",
      "federal_state": "Deutschland",
      "area_code": "030"
    },
    {
      "code": "TIR",
      "city_district": "Landkreis Tirschenreuth",
      "derived_from": "TIRschenreuth",
      "federal_state": "Bayern",
      "area_code": "09631"
    },
    {
      "code": "TO",
      "city_district": "Landkreis Nordsachsen",
      "derived_from": "Torgau, Oschatz",
      "federal_state": "Sachsen",
      "area_code": "0351"
    },
    {
      "code": "TP",
      "city_district": "Landkreis Uckermark",
      "derived_from": "TemPlin",
      "federal_state": "Brandenburg",
      "area_code": "0331"
    },
    {
      "code": "TR",
      "city_district": "Landkreis Trier-Saarburg und Stadt Trier",
      "derived_from": "TRier",
      "federal_state": "Rheinland-Pfalz",
      "area_code": "0651"
    },
    {
      "code": "TS",
      "city_district": "Landkreis Traunstein",
      "derived_from": "TraunStein",
      "federal_state": "Bayern",
      "area_code": "0861"
    },
    {
      "code": "TT",
      "city_district": "Bodenseekreis",
      "derived_from": "TeTtnang",
      "federal_state": "Baden-Württemberg",
      "area_code": "0711"
    },
    {
      "code": "TUT",
      "city_district": "Landkreis Tuttlingen",
      "derived_from": "TUTtlingen",
      "federal_state": "Baden-Württemberg",
      "area_code": "07461"
    },
    {
      "code": "UE",
      "city_district": "Landkreis Uelzen",
      "derived_from": "UElzen",
      "federal_state": "Niedersachsen",
      "area_code": "0581"
    },
    {
      "code": "UEM",
      "city_district": "ehemaliger Kreis Ueckermünde",
      "derived_from": "UEckerMünde",
      "federal_state": "Mecklenburg-Vorpommern",
      "area_code": "0385"
    },
    {
      "code": "UFF",
      "city_district": "Landkreis Neustadt an der Aisch-Bad Windsheim",
      "derived_from": "UFFenheim",
      "federal_state": "Bayern",
      "area_code": "06321"
    },
    {
      "code": "UH",
      "city_district": "Unstrut-Hainich-Kreis",
      "derived_from": "Unstrut, Hainich",
      "federal_state": "Thüringen",
      "area_code": "0361"
    },
    {
      "code": "UL",
      "city_district": "Stadt Ulm",
      "derived_from": "ULm",
      "federal_state": "Baden-Württemberg",
      "area_code": "0731"
    },
    {
      "code": "UM",
      "city_district": "Landkreis Uckermark",
      "derived_from": "UckerMark",
      "federal_state": "Brandenburg",
      "area_code": "0331"
    },
    {
      "code": "UN",
      "city_district": "Kreis Unna",
      "derived_from": "UNna",
      "federal_state": "Nordrhein-Westfalen",
      "area_code": "02303"
    },
    {
      "code": "USI",
      "city_district": "Hochtaunuskreis",
      "derived_from": "USIngen",
      "federal_state": "Hessen",
      "area_code": "0611"
    },
    {
      "code": "V",
      "city_district": "Vogtlandkreis",
      "derived_from": "Vogtland",
      "federal_state": "Sachsen",
      "area_code": "0351"
    },
    {
      "code": "VAI",
      "city_district": "Landkreis Ludwigsburg",
      "derived_from": "VAIhingen",
      "federal_state": "Baden-Württemberg",
      "area_code": "07141"
    },
    {
      "code": "VB",
      "city_district": "Vogelsbergkreis",
      "derived_from": "VogelsBerg",
      "federal_state": "Hessen",
      "area_code": "0611"
    },
    {
      "code": "VEC",
      "city_district": "Landkreis Vechta",
      "derived_from": "VEChta",
      "federal_state": "Niedersachsen",
      "area_code": "04441"
    },
    {
      "code": "VER",
      "city_district": "Landkreis Verden",
      "derived_from": "VERden",
      "federal_state": "Niedersachsen",
      "area_code": "04231"
    },
    {
      "code": "VG",
      "city_district": "Landkreis Vorpommern-Greifswald",
      "derived_from": "Vorpommern-Greifswald",
      "federal_state": "Mecklenburg-Vorpommern",
      "area_code": "0385"
    },
    {
      "code": "VIB",
      "city_district": "Landkreis Landshut",
      "derived_from": "VIlsBiburg",
      "federal_state": "Bayern",
      "area_code": "0871"
    },
    {
      "code": "VIE",
      "city_district": "Kreis Viersen",
      "derived_from": "VIErsen",
      "federal_state": "Nordrhein-Westfalen",
      "area_code": "02162"
    },
    {
      "code": "VIT",
      "city_district": "Landkreis Regen",
      "derived_from": "VIechTach",
      "federal_state": "Bayern",
      "area_code": "0941"
    },
    {
      "code": "VK",
      "city_district": "Stadt Völklingen",
      "derived_from": "VölKlingen",
      "federal_state": "Saarland",
      "area_code": "0681"
    },
    {
      "code": "VOH",
      "city_district": "Landkreis Neustadt an der Waldnaab",
      "derived_from": "VOHenstrauß",
      "federal_state": "Bayern",
      "area_code": "06321"
    },
    {
      "code": "VR",
      "city_district": "Landkreis Vorpommern-Rügen",
      "derived_from": "Vorpommern-Rügen",
      "federal_state": "Mecklenburg-Vorpommern",
      "area_code": "0385"
    },
    {
      "code": "VS",
      "city_district": "Schwarzwald-Baar-Kreis",
      "derived_from": "Villingen-Schwenningen",
      "federal_state": "Baden-Württemberg",
      "area_code": "07721"
    },
    {
      "code": "W",
      "city_district": "Stadt Wuppertal",
      "derived_from": "Wuppertal",
      "federal_state": "Nordrhein-Westfalen",
      "area_code": "0202"
    },
    {
      "code": "WA",
      "city_district": "Landkreis Waldeck-Frankenberg",
      "derived_from": "WAldeck",
      "federal_state": "Hessen",
      "area_code": "0611"
    },
    {
      "code": "WAF",
      "city_district": "Kreis Warendorf",
      "derived_from": "WArendorF",
      "federal_state": "Nordrhein-Westfalen",
      "area_code": "02581"
    },
    {
      "code": "WAK",
      "city_district": "Wartburgkreis",
      "derived_from": "WArtburgKreis",
      "federal_state": "Thüringen",
      "area_code": "0361"
    },
    {
      "code": "WAN",
      "city_district": "Stadt Herne",
      "derived_from": "WANne",
      "federal_state": "Nordrhein-Westfalen",
      "area_code": "02323"
    },
    {
      "code": "WAR",
      "city_district": "Kreis Höxter",
      "derived_from": "WARburg",
      "federal_state": "Nordrhein-Westfalen",
      "area_code": "05271"
    },
    {
      "code": "WAT",
      "city_district": "Stadt Bochum",
      "derived_from": "WATtenscheid",
      "federal_state": "Nordrhein-Westfalen",
      "area_code": "0234"
    },
    {
      "code": "WB",
      "city_district": "Landkreis Wittenberg",
      "derived_from": "WittenBerg",
      "federal_state": "Sachsen-Anhalt",
      "area_code": "0391"
    },
    {
      "code": "WBS",
      "city_district": "Landkreis Eichsfeld",
      "derived_from": "WorBiS",
      "federal_state": "Thüringen",
      "area_code": "0361"
    },
    {
      "code": "WDA",
      "city_district": "Landkreis Zwickau",
      "derived_from": "WerDAu",
      "federal_state": "Sachsen",
      "area_code": "0375"
    },
    {
      "code": "WE",
      "city_district": "Stadt Weimar",
      "derived_from": "WEimar",
      "federal_state": "Thüringen",
      "area_code": "03643"
    },
    {
      "code": "WEL",
      "city_district": "Landkreis Limburg-Weilburg",
      "derived_from": "WEiLburg",
      "federal_state": "Hessen",
      "area_code": "06431"
    },
    {
      "code": "WEN",
      "city_district": "Stadt Weiden in der Oberpfalz",
      "derived_from": "WEideN",
      "federal_state": "Bayern",
      "area_code": "0961"
    },
    {
      "code": "WER",
      "city_district": "Landkreis Augsburg",
      "derived_from": "WERtingen",
      "federal_state": "Bayern",
      "area_code": "0821"
    },
    {
      "code": "WES",
      "city_district": "Kreis Wesel",
      "derived_from": "WESel",
      "federal_state": "Nordrhein-Westfalen",
      "area_code": "0281"
    },
    {
      "code": "WF",
      "city_district": "Landkreis Wolfenbüttel",
      "derived_from": "WolFenbüttel",
      "federal_state": "Niedersachsen",
      "area_code": "05331"
    },
    {
      "code": "WG",
      "city_district": "Landkreis Ravensburg",
      "derived_from": "WanGen",
      "federal_state": "Baden-Württemberg",
      "area_code": "0751"
    },
    {
      "code": "WHV",
      "city_district": "Stadt Wilhelmshaven",
      "derived_from": "WilhelmsHaVen",
      "federal_state": "Niedersachsen",
      "area_code": "04421"
    },
    {
      "code": "WI",
      "city_district": "Stadt Wiesbaden",
      "derived_from": "WIesbaden",
      "federal_state": "Hessen",
      "area_code": "0611"
    },
    {
      "code": "WIL",
      "city_district": "Landkreis Bernkastel-Wittlich",
      "derived_from": "WIttLich",
      "federal_state": "Rheinland-Pfalz",
      "area_code": "06131"
    },
    {
      "code": "WIS",
      "city_district": "ehemaliger Kreis Wismar",
      "derived_from": "WISmar",
      "federal_state": "Mecklenburg-Vorpommern",
      "area_code": "0385"
    },
    {
      "code": "WIT",
      "city_district": "Ennepe-Ruhr-Kreis",
      "derived_from": "WITten",
      "federal_state": "Nordrhein-Westfalen",
      "area_code": "0211"
    },
    {
      "code": "WIZ",
      "city_district": "Werra-Meißner-Kreis",
      "derived_from": "WItZenhausen",
      "federal_state": "Hessen",
      "area_code": "0611"
    },
    {
      "code": "WK",
      "city_district": "Landkreis Ostprignitz-Ruppin",
      "derived_from": "WittstocK",
      "federal_state": "Brandenburg",
      "area_code": "0331"
    },
    {
      "code": "WL",
      "city_district": "Landkreis Harburg",
      "derived_from": "Winsen",
      "federal_state": "Niedersachsen",
      "area_code": "0511"
    },
    {
      "code": "WLG",
      "city_district": "ehemaliger Kreis Wolgast",
      "derived_from": "WoLGast",
      "federal_state": "Mecklenburg-Vorpommern",
      "area_code": "0385"
    },
    {
      "code": "WM",
      "city_district": "Landkreis Weilheim-Schongau",
      "derived_from": "WeilheiM",
      "federal_state": "Bayern",
      "area_code": "0881"
    },
    {
      "code": "WMS",
      "city_district": "Landkreis Börde",
      "derived_from": "WolMirStedt",
      "federal_state": "Sachsen-Anhalt",
      "area_code": "0391"
    },
    {
      "code": "WN",
      "city_district": "Rems-Murr-Kreis",
      "derived_from": "WaiblingeN",
      "federal_state": "Baden-Württemberg",
      "area_code": "0711"
    },
    {
      "code": "WND",
      "city_district": "Landkreis St. Wendel",
      "derived_from": "WeNDel",
      "federal_state": "Saarland",
      "area_code": "0681"
    },
    {
      "code": "WO",
      "city_district": "Stadt Worms",
      "derived_from": "WOrms",
      "federal_state": "Rheinland-Pfalz",
      "area_code": "06241"
    },
    {
      "code": "WOB",
      "city_district": "Stadt Wolfsburg",
      "derived_from": "WOlfsBurg",
      "federal_state": "Niedersachsen",
      "area_code": "05361"
    },
    {
      "code": "WOH",
      "city_district": "Landkreis Kassel",
      "derived_from": "WOlfHagen",
      "federal_state": "Hessen",
      "area_code": "0561"
    },
    {
      "code": "WOL",
      "city_district": "Landkreis Freudenstadt",
      "derived_from": "WOLfach",
      "federal_state": "Baden-Württemberg",
      "area_code": "07441"
    },
    {
      "code": "WOR",
      "city_district": "Landkreis Bad Tölz-Wolfratshausen",
      "derived_from": "WOlfRatshausen",
      "federal_state": "Bayern",
      "area_code": "089"
    },
    {
      "code": "WOS",
      "city_district": "Landkreis Freyung-Grafenau",
      "derived_from": "WOlfStein",
      "federal_state": "Bayern",
      "area_code": "08551"
    },
    {
      "code": "WR",
      "city_district": "Landkreis Harz",
      "derived_from": "WernigeRode",
      "federal_state": "Sachsen-Anhalt",
      "area_code": "0391"
    },
    {
      "code": "WRN",
      "city_district": "ehemaliger Kreis Waren",
      "derived_from": "WaReN",
      "federal_state": "Mecklenburg-Vorpommern",
      "area_code": "0385"
    },
    {
      "code": "WS",
      "city_district": "Landkreis Mühldorf a.Inn",
      "derived_from": "WasSerburg",
      "federal_state": "Bayern",
      "area_code": "08631"
    },
    {
      "code": "WSF",
      "city_district": "Burgenlandkreis",
      "derived_from": "WeisSenFels",
      "federal_state": "Sachsen-Anhalt",
      "area_code": "0391"
    },
    {
      "code": "WST",
      "city_district": "Landkreis Ammerland",
      "derived_from": "WesterSTede",
      "federal_state": "Niedersachsen",
      "area_code": "0511"
    },
    {
      "code": "WSW",
      "city_district": "Landkreis Görlitz",
      "derived_from": "WeisSWasser",
      "federal_state": "Sachsen",
      "area_code": "03581"
    },
    {
      "code": "WT",
      "city_district": "Landkreis Waldshut",
      "derived_from": "WaldshuT",
      "federal_state": "Baden-Württemberg",
      "area_code": "0711"
    },
    {
      "code": "WTL",
      "city_district": "Landkreis Osnabrück",
      "derived_from": "WitTLage",
      "federal_state": "Niedersachsen",
      "area_code": "0541"
    },
    {
      "code": "WTM",
      "city_district": "Landkreis Wittmund",
      "derived_from": "WitTMund",
      "federal_state": "Niedersachsen",
      "area_code": "0511"
    },
    {
      "code": "WUG",
      "city_district": "Landkreis Weißenburg-Gunzenhausen",
      "derived_from": "WeißenbUrG",
      "federal_state": "Bayern",
      "area_code": "09141"
    },
    {
      "code": "WUN",
      "city_district": "Landkreis Wunsiedel im Fichtelgebirge",
      "derived_from": "WUNsiedel",
      "federal_state": "Bayern",
      "area_code": "09232"
    },
    {
      "code": "WUR",
      "city_district": "Landkreis Leipzig",
      "derived_from": "WURzen",
      "federal_state": "Sachsen",
      "area_code": "0341"
    },
    {
      "code": "WW",
      "city_district": "Westerwaldkreis",
      "derived_from": "WesterWald",
      "federal_state": "Rheinland-Pfalz",
      "area_code": "06131"
    },
    {
      "code": "WZ",
      "city_district": "Lahn-Dill-Kreis",
      "derived_from": "WetZlar",
      "federal_state": "Hessen",
      "area_code": "0611"
    },
    {
      "code": "WZL",
      "city_district": "Landkreis Börde",
      "derived_from": "WanZLeben",
      "federal_state": "Sachsen-Anhalt",
      "area_code": "0391"
    },
    {
      "code": "X",
      "city_district": "Internationale Hauptquartiere",
      "derived_from": "willkürlich gewählt",
      "federal_state": "Deutschland",
      "area_code": "030"
    },
    {
      "code": "Z",
      "city_district": "Landkreis Zwickau",
      "derived_from": "Zwickau",
      "federal_state": "Sachsen",
      "area_code": "0375"
    },
    {
      "code": "ZE",
      "city_district": "Landkreis Anhalt-Bitterfeld",
      "derived_from": "ZErbst",
      "federal_state": "Sachsen-Anhalt",
      "area_code": "0391"
    },
    {
      "code": "ZEL",
      "city_district": "Landkreis Cochem-Zell",
      "derived_from": "ZELl",
      "federal_state": "Rheinland-Pfalz",
      "area_code": "06131"
    },
    {
      "code": "ZI",
      "city_district": "Landkreis Görlitz",
      "derived_from": "ZIttau",
      "federal_state": "Sachsen",
      "area_code": "03581"
    },
    {
      "code": "ZIG",
      "city_district": "Schwalm-Eder-Kreis",
      "derived_from": "ZIeGenhain",
      "federal_state": "Hessen",
      "area_code": "0611"
    },
    {
      "code": "ZP",
      "city_district": "Erzgebirgskreis",
      "derived_from": "ZschoPau",
      "federal_state": "Sachsen",
      "area_code": "0351"
    },
    {
      "code": "ZR",
      "city_district": "Landkreis Greiz",
      "derived_from": "ZeulenRoda",
      "federal_state": "Thüringen",
      "area_code": "03661"
    },
    {
      "code": "ZS",
      "city_district": "Landkreis Teltow-Fläming",
      "derived_from": "ZoSsen",
      "federal_state": "Brandenburg",
      "area_code": "0331"
    },
    {
      "code": "ZW",
      "city_district": "Stadt Zweibrücken",
      "derived_from": "ZWeibrücken",
      "federal_state": "Rheinland-Pfalz",
      "area_code": "06332"
    },
    {
      "code": "ZZ",
      "city_district": "Burgenlandkreis",
      "derived_from": "ZeitZ",
      "federal_state": "Sachsen-Anhalt",
      "area_code": "0391"
    }
  ]
}